{
"type": "FeatureCollection",
"name": "New_England_WIC_Vendors",
"crs": { "type": "name", "properties": { "name": "urn:ogc:def:crs:OGC:1.3:CRS84" } },
"features": [
{ "type": "Feature", "properties": { "Vendor": "CVS #0085", "Address": "972 SILVER LN", "City": "EAST HARTFORD", "Phone": 8605690888.0, "Zip": "06108", "State": "CT" }, "geometry": { "type": "Point", "coordinates": [ -72.644008958664216, 41.768961450366398 ] } },
{ "type": "Feature", "properties": { "Vendor": "CVS #0942", "Address": "542 PROVIDENCE RD", "City": "BROOKLYN", "Phone": 8607790523.0, "Zip": "06234", "State": "CT" }, "geometry": { "type": "Point", "coordinates": [ -71.903620236334078, 41.799101413054387 ] } },
{ "type": "Feature", "properties": { "Vendor": "DEFLORIO'S VARIETY", "Address": "115 ELY AVE", "City": "NORWALK", "Phone": 2038662590.0, "Zip": "06854", "State": "CT" }, "geometry": { "type": "Point", "coordinates": [ -73.424285444765729, 41.092579478571203 ] } },
{ "type": "Feature", "properties": { "Vendor": "BIG Y WORLD CLASS MARKET #48", "Address": "65 PALOMBA DR", "City": "ENFIELD", "Phone": 8607495514.0, "Zip": "06082", "State": "CT" }, "geometry": { "type": "Point", "coordinates": [ -72.571583741916697, 41.990774103563759 ] } },
{ "type": "Feature", "properties": { "Vendor": "STOP & SHOP #644", "Address": "44 LAKE AVE EXT #46", "City": "DANBURY", "Phone": 2037978901.0, "Zip": "06811", "State": "CT" }, "geometry": { "type": "Point", "coordinates": [ -73.487920733013212, 41.38598356390812 ] } },
{ "type": "Feature", "properties": { "Vendor": "CVS #10367", "Address": "930 WHITE PLAINS RD", "City": "TRUMBULL", "Phone": 2032612542.0, "Zip": "06611", "State": "CT" }, "geometry": { "type": "Point", "coordinates": [ -73.196826509501491, 41.245078080842347 ] } },
{ "type": "Feature", "properties": { "Vendor": "STOP & SHOP #630", "Address": "44 FENN RD", "City": "NEWINGTON", "Phone": 8606678380.0, "Zip": "06111", "State": "CT" }, "geometry": { "type": "Point", "coordinates": [ -72.75648893542116, 41.6977139604803 ] } },
{ "type": "Feature", "properties": { "Vendor": "CVS #1080", "Address": "817 BANK ST", "City": "NEW LONDON", "Phone": 8604435359.0, "Zip": "06320", "State": "CT" }, "geometry": { "type": "Point", "coordinates": [ -72.107410162428067, 41.349038527078271 ] } },
{ "type": "Feature", "properties": { "Vendor": "CARIBBEAN AMERICAN VARIETY", "Address": "407 CENTER ST", "City": "MERIDEN", "Phone": 2032351502.0, "Zip": "06450", "State": "CT" }, "geometry": { "type": "Point", "coordinates": [ -72.793359906526078, 41.545134477484162 ] } },
{ "type": "Feature", "properties": { "Vendor": "LOS CHICOS ALEGRES", "Address": "317 E MAIN ST", "City": "WATERBURY", "Phone": 2037570657.0, "Zip": "06702", "State": "CT" }, "geometry": { "type": "Point", "coordinates": [ -73.035262810674624, 41.554743497202814 ] } },
{ "type": "Feature", "properties": { "Vendor": "CVS #0954", "Address": "311 MAIN ST", "City": "TERRYVILLE", "Phone": 8603142890.0, "Zip": "06786", "State": "CT" }, "geometry": { "type": "Point", "coordinates": [ -73.019177852160922, 41.679247466666077 ] } },
{ "type": "Feature", "properties": { "Vendor": "CVS #0388", "Address": "613 BOSTON POST RD", "City": "MADISON", "Phone": 2032459438.0, "Zip": "06443", "State": "CT" }, "geometry": { "type": "Point", "coordinates": [ -72.598031969305481, 41.280086547495685 ] } },
{ "type": "Feature", "properties": { "Vendor": "ANSONIA XPRESS MART", "Address": "180 WAKELEE AVE", "City": "ANSONIA", "Phone": 2037343550.0, "Zip": "06401", "State": "CT" }, "geometry": { "type": "Point", "coordinates": [ -73.09048881794142, 41.344514554150528 ] } },
{ "type": "Feature", "properties": { "Vendor": "POST ROAD EXPRESS", "Address": "983 BOSTON POST RD", "City": "WEST HAVEN", "Phone": 2039323934.0, "Zip": "06516", "State": "CT" }, "geometry": { "type": "Point", "coordinates": [ -72.978612661818616, 41.284604040483124 ] } },
{ "type": "Feature", "properties": { "Vendor": "PRICERITE OF CROMWELL", "Address": "136 BERLIN RD", "City": "CROMWELL", "Phone": 8606350004.0, "Zip": "06416", "State": "CT" }, "geometry": { "type": "Point", "coordinates": [ -72.708336921490812, 41.606811481258795 ] } },
{ "type": "Feature", "properties": { "Vendor": "TARGET T-1956", "Address": "120 HAWLEY LN", "City": "TRUMBULL", "Phone": 2034550102.0, "Zip": "06611", "State": "CT" }, "geometry": { "type": "Point", "coordinates": [ -73.152536849368758, 41.232528578430376 ] } },
{ "type": "Feature", "properties": { "Vendor": "CVS #1152", "Address": "58 PENNSYLVANIA AVE", "City": "NIANTIC", "Phone": 8606910380.0, "Zip": "06357", "State": "CT" }, "geometry": { "type": "Point", "coordinates": [ -72.193670145735425, 41.325702519241801 ] } },
{ "type": "Feature", "properties": { "Vendor": "BIG Y WORLD CLASS MARKET #44", "Address": "1040 ELM ST", "City": "ROCKY HILL", "Phone": 8607210692.0, "Zip": "06067", "State": "CT" }, "geometry": { "type": "Point", "coordinates": [ -72.676195250958443, 41.65843010509208 ] } },
{ "type": "Feature", "properties": { "Vendor": "BIG Y WORLD CLASS MARKET #55", "Address": "830 BOSTON POST RD", "City": "GUILFORD", "Phone": 2034533267.0, "Zip": "06437", "State": "CT" }, "geometry": { "type": "Point", "coordinates": [ -72.677980966890985, 41.287584538716033 ] } },
{ "type": "Feature", "properties": { "Vendor": "PIONEER FOOD CENTER", "Address": "346  BALDWIN STREET", "City": "WATERBURY", "Phone": 2035283502.0, "Zip": "06706", "State": "CT" }, "geometry": { "type": "Point", "coordinates": [ -73.033576296317648, 41.547769444208861 ] } },
{ "type": "Feature", "properties": { "Vendor": "STOP & SHOP #2611", "Address": "11 E HIGH ST", "City": "EAST HAMPTON", "Phone": 8602672039.0, "Zip": "06424", "State": "CT" }, "geometry": { "type": "Point", "coordinates": [ -72.670190433912921, 42.2702944783045 ] } },
{ "type": "Feature", "properties": { "Vendor": "STG GROCERY", "Address": "441 BARBOUR ST", "City": "HARTFORD", "Phone": 8605248693.0, "Zip": "06120", "State": "CT" }, "geometry": { "type": "Point", "coordinates": [ -72.676420980574548, 41.797445426706084 ] } },
{ "type": "Feature", "properties": { "Vendor": "BIG Y WORLD CLASS MARKET #32", "Address": "85 BRIDGE ST", "City": "NAUGATUCK", "Phone": 2037294124.0, "Zip": "06770", "State": "CT" }, "geometry": { "type": "Point", "coordinates": [ -73.0527398300908, 41.500507523862957 ] } },
{ "type": "Feature", "properties": { "Vendor": "CVS #2259", "Address": "215 WHALLEY AVE", "City": "NEW HAVEN", "Phone": 2034014660.0, "Zip": "06511", "State": "CT" }, "geometry": { "type": "Point", "coordinates": [ -72.939633890061941, 41.31604353357239 ] } },
{ "type": "Feature", "properties": { "Vendor": "BIG Y WORLD CLASS MARKET #53", "Address": "255 W MAIN ST", "City": "AVON", "Phone": 8606781322.0, "Zip": "06001", "State": "CT" }, "geometry": { "type": "Point", "coordinates": [ -72.853094928973917, 41.810570442556894 ] } },
{ "type": "Feature", "properties": { "Vendor": "LA MARQUETA MEAT & PRODUCE", "Address": "54 MYRTLE AVE", "City": "STAMFORD", "Phone": 2032980595.0, "Zip": "06902", "State": "CT" }, "geometry": { "type": "Point", "coordinates": [ -73.524362743265925, 41.054156613532726 ] } },
{ "type": "Feature", "properties": { "Vendor": "CVS #1101", "Address": "16 MAIN ST", "City": "EAST HARTFORD", "Phone": 8605691418.0, "Zip": "06118", "State": "CT" }, "geometry": { "type": "Point", "coordinates": [ -72.615902993041857, 41.728081458951912 ] } },
{ "type": "Feature", "properties": { "Vendor": "BIG Y WORLD CLASS MARKET #88", "Address": "533 S BROAD ST", "City": "MERIDEN", "Phone": 2032375244.0, "Zip": "06450", "State": "CT" }, "geometry": { "type": "Point", "coordinates": [ -72.805665963567236, 41.508269491220894 ] } },
{ "type": "Feature", "properties": { "Vendor": "CVS #0865", "Address": "839 E MAIN ST", "City": "MERIDEN", "Phone": 2032372665.0, "Zip": "06450", "State": "CT" }, "geometry": { "type": "Point", "coordinates": [ -72.775264893987057, 41.527742491199028 ] } },
{ "type": "Feature", "properties": { "Vendor": "CVS #1898", "Address": "255 SOUND BEACH AVE", "City": "OLD GREENWICH", "Phone": 2036981457.0, "Zip": "06870", "State": "CT" }, "geometry": { "type": "Point", "coordinates": [ -73.567490950660854, 41.030703801774592 ] } },
{ "type": "Feature", "properties": { "Vendor": "CVS #1219", "Address": "229 HOPE ST", "City": "STAMFORD", "Phone": 2039211317.0, "Zip": "06906", "State": "CT" }, "geometry": { "type": "Point", "coordinates": [ -73.525868717258689, 41.068673606509456 ] } },
{ "type": "Feature", "properties": { "Vendor": "DAILY NEEDS LLC", "Address": "1485 EAST MAIN STREET", "City": "WATERBURY", "Phone": 2037571088.0, "Zip": "06705", "State": "CT" }, "geometry": { "type": "Point", "coordinates": [ -73.017098813711826, 41.546864509301891 ] } },
{ "type": "Feature", "properties": { "Vendor": "STOP & SHOP #663", "Address": "1360 EAST TOWN RD", "City": "MILFORD", "Phone": 2038771841.0, "Zip": "06460", "State": "CT" }, "geometry": { "type": "Point", "coordinates": [ -73.030162861905055, 41.237137573213538 ] } },
{ "type": "Feature", "properties": { "Vendor": "G&C GROCERY LLC", "Address": "760 PARK ST", "City": "HARTFORD", "Phone": 8604617766.0, "Zip": "06106", "State": "CT" }, "geometry": { "type": "Point", "coordinates": [ -72.689680982435519, 41.758316446867596 ] } },
{ "type": "Feature", "properties": { "Vendor": "CVS #1109", "Address": "7 DURANT AVE", "City": "BETHEL", "Phone": 2037941745.0, "Zip": "06801", "State": "CT" }, "geometry": { "type": "Point", "coordinates": [ -73.414869706011245, 41.373332547717631 ] } },
{ "type": "Feature", "properties": { "Vendor": "SHOPRITE OF ORANGE #325", "Address": "259 BULL HILL LANE", "City": "ORANGE", "Phone": 2037950628.0, "Zip": "06477", "State": "CT" }, "geometry": { "type": "Point", "coordinates": [ -72.986003906686221, 41.274367547659828 ] } },
{ "type": "Feature", "properties": { "Vendor": "CVS #2097", "Address": "279 BOSTON POST RD", "City": "ORANGE", "Phone": 2037990177.0, "Zip": "06477", "State": "CT" }, "geometry": { "type": "Point", "coordinates": [ -73.001639839604309, 41.267377545368184 ] } },
{ "type": "Feature", "properties": { "Vendor": "UPTOWN NEWS & VARIETY", "Address": "4200 MAIN ST", "City": "BRIDGEPORT", "Phone": 2035439196.0, "Zip": "06606", "State": "CT" }, "geometry": { "type": "Point", "coordinates": [ -73.214325824845503, 41.217653937353703 ] } },
{ "type": "Feature", "properties": { "Vendor": "WATERBURY QUICK MART", "Address": "467 WOLCOTT ST", "City": "WATERBURY", "Phone": 2035730469.0, "Zip": "06705", "State": "CT" }, "geometry": { "type": "Point", "coordinates": [ -73.013924503302945, 41.55636021386934 ] } },
{ "type": "Feature", "properties": { "Vendor": "STOP & SHOP #681", "Address": "1235 FARMINGTON AVE", "City": "WEST HARTFORD", "Phone": 8605215010.0, "Zip": "06107", "State": "CT" }, "geometry": { "type": "Point", "coordinates": [ -72.76514993800636, 41.754348457411687 ] } },
{ "type": "Feature", "properties": { "Vendor": "SHOPRITE OF ENFIELD", "Address": "40 HAZARD AVE", "City": "ENFIELD", "Phone": 8607451621.0, "Zip": "06082", "State": "CT" }, "geometry": { "type": "Point", "coordinates": [ -72.578291456969367, 41.98968842585014 ] } },
{ "type": "Feature", "properties": { "Vendor": "CARUSO'S MARKET", "Address": "118 OAK ST", "City": "WATERBURY", "Phone": 2037566521.0, "Zip": "06704", "State": "CT" }, "geometry": { "type": "Point", "coordinates": [ -73.023720849527294, 41.558040518296835 ] } },
{ "type": "Feature", "properties": { "Vendor": "CVS #1097", "Address": "661 MAIN ST", "City": "TORRINGTON", "Phone": 8604822415.0, "Zip": "06790", "State": "CT" }, "geometry": { "type": "Point", "coordinates": [ -73.122282763318523, 41.813703438510551 ] } },
{ "type": "Feature", "properties": { "Vendor": "BIG Y WORLD CLASS MARKET #56", "Address": "1 KENT RD", "City": "NEW MILFORD", "Phone": 8603552628.0, "Zip": "06776", "State": "CT" }, "geometry": { "type": "Point", "coordinates": [ -73.420115757783762, 41.574152515355976 ] } },
{ "type": "Feature", "properties": { "Vendor": "WALMART SUPERCENTER #2331", "Address": "155 WATERFORD PKWY N", "City": "WATERFORD", "Phone": 8604473646.0, "Zip": "06385", "State": "CT" }, "geometry": { "type": "Point", "coordinates": [ -72.154981134490967, 41.370588522815822 ] } },
{ "type": "Feature", "properties": { "Vendor": "CVS #556", "Address": "1657 ROUTE 12", "City": "GALES FERRY", "Phone": 8604640288.0, "Zip": "06335", "State": "CT" }, "geometry": { "type": "Point", "coordinates": [ -72.082110731394948, 41.427624591675347 ] } },
{ "type": "Feature", "properties": { "Vendor": "PRICERITE OF HAMDEN", "Address": "1869 DIXWELL AVENUE", "City": "HAMDEN", "Phone": 2032810036.0, "Zip": "06514", "State": "CT" }, "geometry": { "type": "Point", "coordinates": [ -72.922004906360556, 41.36287455871998 ] } },
{ "type": "Feature", "properties": { "Vendor": "CVS #10462", "Address": "720 BRANCHVILLE ROAD", "City": "RIDGEFIELD", "Phone": 2035447094.0, "Zip": "06877", "State": "CT" }, "geometry": { "type": "Point", "coordinates": [ -73.443617702903026, 41.267248562475245 ] } },
{ "type": "Feature", "properties": { "Vendor": "BRAVO SUPERMARKET", "Address": "685 MAPLE AVE", "City": "HARTFORD", "Phone": 8602931354.0, "Zip": "06114", "State": "CT" }, "geometry": { "type": "Point", "coordinates": [ -72.683988917253302, 41.741630469718864 ] } },
{ "type": "Feature", "properties": { "Vendor": "MARIBEL GROCERY", "Address": "235 MADISON AVENUE", "City": "BRIDGEPORT", "Phone": 2033336220.0, "Zip": "06604", "State": "CT" }, "geometry": { "type": "Point", "coordinates": [ -73.197378061216071, 41.186957431684483 ] } },
{ "type": "Feature", "properties": { "Vendor": "GRADE A SHOPRITE #398", "Address": "875 BRIDGEPORT AVE", "City": "SHELTON", "Phone": 2032259224.0, "Zip": "06484", "State": "CT" }, "geometry": { "type": "Point", "coordinates": [ -73.13469085922209, 41.264841563574358 ] } },
{ "type": "Feature", "properties": { "Vendor": "CVS #1153", "Address": "1875 BOSTON AVE", "City": "BRIDGEPORT", "Phone": 2033308284.0, "Zip": "06610", "State": "CT" }, "geometry": { "type": "Point", "coordinates": [ -73.159257794166393, 41.193625575683498 ] } },
{ "type": "Feature", "properties": { "Vendor": "N J MINI MARKET", "Address": "335 BROAD ST", "City": "NEW BRITAIN", "Phone": 8605050387.0, "Zip": "06053", "State": "CT" }, "geometry": { "type": "Point", "coordinates": [ -72.795962897773435, 41.673315461830008 ] } },
{ "type": "Feature", "properties": { "Vendor": "CAYEY MARKET", "Address": "155 KIMBERLY AVE", "City": "NEW HAVEN", "Phone": 2037890632.0, "Zip": "06519", "State": "CT" }, "geometry": { "type": "Point", "coordinates": [ -72.935063679272048, 41.288306317685198 ] } },
{ "type": "Feature", "properties": { "Vendor": "MY FAIR HAVEN PHARMACY LLC", "Address": "72 GRAND AVENUE", "City": "NEW HAVEN", "Phone": 2034983479.0, "Zip": "06513", "State": "CT" }, "geometry": { "type": "Point", "coordinates": [ -72.890357871844003, 41.30922753748159 ] } },
{ "type": "Feature", "properties": { "Vendor": "PRICERITE OF WILLIMANTIC", "Address": "60 CANTOR DRIVE", "City": "WILLIMANTIC", "Phone": 8604501624.0, "Zip": "06226", "State": "CT" }, "geometry": { "type": "Point", "coordinates": [ -72.23901310300289, 41.725534438288875 ] } },
{ "type": "Feature", "properties": { "Vendor": "C.O.N. MINI MARKET", "Address": "190 W MAIN ST", "City": "STAMFORD", "Phone": 2033248842.0, "Zip": "06902", "State": "CT" }, "geometry": { "type": "Point", "coordinates": [ -73.547621678828648, 41.050117627780459 ] } },
{ "type": "Feature", "properties": { "Vendor": "LA GRAN MARKET DELI RESTAURANT", "Address": "595 GRAND ST", "City": "BRIDGEPORT", "Phone": 2039084933.0, "Zip": "06604", "State": "CT" }, "geometry": { "type": "Point", "coordinates": [ -73.199527795430157, 41.187257106856187 ] } },
{ "type": "Feature", "properties": { "Vendor": "CVS #2143", "Address": "3710 MAIN ST", "City": "BRIDGEPORT", "Phone": 2033711279.0, "Zip": "06606", "State": "CT" }, "geometry": { "type": "Point", "coordinates": [ -73.209777771195974, 41.212082566761232 ] } },
{ "type": "Feature", "properties": { "Vendor": "STOP & SHOP #680", "Address": "77 CENTENNIAL AVE", "City": "MERIDEN", "Phone": 2032381778.0, "Zip": "06451", "State": "CT" }, "geometry": { "type": "Point", "coordinates": [ -72.823313735993864, 41.539062440730298 ] } },
{ "type": "Feature", "properties": { "Vendor": "BETTER VAL-U #2", "Address": "657 NORWICH RD", "City": "PLAINFIELD", "Phone": 8605647714.0, "Zip": "06374", "State": "CT" }, "geometry": { "type": "Point", "coordinates": [ -71.916255203658409, 41.675142435243238 ] } },
{ "type": "Feature", "properties": { "Vendor": "STOP & SHOP #670", "Address": "4531 MAIN ST", "City": "BRIDGEPORT", "Phone": 2033716972.0, "Zip": "06606", "State": "CT" }, "geometry": { "type": "Point", "coordinates": [ -73.219421817272348, 41.221401564679326 ] } },
{ "type": "Feature", "properties": { "Vendor": "GEISSLER'S SUPERMARKET", "Address": "40 TUNXIS AVE", "City": "BLOOMFIELD", "Phone": 8602424444.0, "Zip": "06002", "State": "CT" }, "geometry": { "type": "Point", "coordinates": [ -72.737361921544363, 41.836899458010272 ] } },
{ "type": "Feature", "properties": { "Vendor": "STOP & SHOP #658", "Address": "5 RIVER RD", "City": "WILTON", "Phone": 2038340283.0, "Zip": "06897", "State": "CT" }, "geometry": { "type": "Point", "coordinates": [ -73.431956723971936, 41.191105608141363 ] } },
{ "type": "Feature", "properties": { "Vendor": "BRAVO SUPERMARKET", "Address": "1291 ALBANY AVE", "City": "HARTFORD", "Phone": 8602788271.0, "Zip": "06112", "State": "CT" }, "geometry": { "type": "Point", "coordinates": [ -72.697944947461693, 41.781167438716103 ] } },
{ "type": "Feature", "properties": { "Vendor": "BIG Y WORLD CLASS MARKET #30", "Address": "224 SALEM TPKE", "City": "NORWICH", "Phone": 8608869996.0, "Zip": "06360", "State": "CT" }, "geometry": { "type": "Point", "coordinates": [ -72.123965161873869, 41.506054467358716 ] } },
{ "type": "Feature", "properties": { "Vendor": "COLONIAL GROCERY", "Address": "103 COLONIAL AVE", "City": "WATERBURY", "Phone": 2037568291.0, "Zip": "06704", "State": "CT" }, "geometry": { "type": "Point", "coordinates": [ -73.05637681636577, 41.585480517357595 ] } },
{ "type": "Feature", "properties": { "Vendor": "STOP & SHOP #697 SUPER", "Address": "1094 KILLINGLY COMMONS DR", "City": "DAYVILLE", "Phone": 8607793259.0, "Zip": "06241", "State": "CT" }, "geometry": { "type": "Point", "coordinates": [ -71.880765222863857, 41.84167443182421 ] } },
{ "type": "Feature", "properties": { "Vendor": "STOP & SHOP #693", "Address": "940 SILVER LN", "City": "EAST HARTFORD", "Phone": 8605697050.0, "Zip": "06118", "State": "CT" }, "geometry": { "type": "Point", "coordinates": [ -72.601699712400176, 41.765599380069446 ] } },
{ "type": "Feature", "properties": { "Vendor": "CVS #0691", "Address": "1181 MAIN ST", "City": "NEWINGTON", "Phone": 8606668735.0, "Zip": "06111", "State": "CT" }, "geometry": { "type": "Point", "coordinates": [ -72.723257956234747, 41.695668481521245 ] } },
{ "type": "Feature", "properties": { "Vendor": "WALMART SUPERCENTER #2022", "Address": "474 BOSTON POST RD", "City": "NORTH WINDHAM", "Phone": 8604564399.0, "Zip": "06256", "State": "CT" }, "geometry": { "type": "Point", "coordinates": [ -72.177206175217606, 41.741043827139229 ] } },
{ "type": "Feature", "properties": { "Vendor": "CVS #2099", "Address": "479 BLUE HILLS AVE", "City": "HARTFORD", "Phone": 8607696869.0, "Zip": "06112", "State": "CT" }, "geometry": { "type": "Point", "coordinates": [ -72.695976960885972, 41.798918462962178 ] } },
{ "type": "Feature", "properties": { "Vendor": "CVS #0333", "Address": "976 FARMINGTON AVE", "City": "WEST HARTFORD", "Phone": 8605210425.0, "Zip": "06107", "State": "CT" }, "geometry": { "type": "Point", "coordinates": [ -72.744210943517629, 41.761603454221166 ] } },
{ "type": "Feature", "properties": { "Vendor": "C TOWN SUPERMARKET", "Address": "360 BOSTON AVE", "City": "STRATFORD", "Phone": 2033758987.0, "Zip": "06614", "State": "CT" }, "geometry": { "type": "Point", "coordinates": [ -73.153658642719947, 41.192573297663955 ] } },
{ "type": "Feature", "properties": { "Vendor": "STOP & SHOP #631", "Address": "215 GLASTONBURY BLVD", "City": "GLASTONBURY", "Phone": 8606594553.0, "Zip": "06033", "State": "CT" }, "geometry": { "type": "Point", "coordinates": [ -72.623683995527827, 41.722068450177758 ] } },
{ "type": "Feature", "properties": { "Vendor": "STOP & SHOP #653", "Address": "1790 POST RD E", "City": "WESTPORT", "Phone": 2032548484.0, "Zip": "06880", "State": "CT" }, "geometry": { "type": "Point", "coordinates": [ -73.30177676068223, 41.137452591072602 ] } },
{ "type": "Feature", "properties": { "Vendor": "CARLA'S SUPERMARKET", "Address": "660 BLUE HILLS AVE", "City": "HARTFORD", "Phone": 8602431439.0, "Zip": "06112", "State": "CT" }, "geometry": { "type": "Point", "coordinates": [ -72.695094932814925, 41.805096426719608 ] } },
{ "type": "Feature", "properties": { "Vendor": "AZTECA MARKET", "Address": "522 PEQUONNOCK ST", "City": "BRIDGEPORT", "Phone": 2032969955.0, "Zip": "06604", "State": "CT" }, "geometry": { "type": "Point", "coordinates": [ -73.204081851812262, 41.182578566367646 ] } },
{ "type": "Feature", "properties": { "Vendor": "GEISSLER'S SUPERMARKET", "Address": "95 SOUTH RD", "City": "SOMERS", "Phone": 8607497339.0, "Zip": "06071", "State": "CT" }, "geometry": { "type": "Point", "coordinates": [ -72.444827971002042, 41.979609411347361 ] } },
{ "type": "Feature", "properties": { "Vendor": "PARK AVENUE SUPERMARKET", "Address": "375 PARK AVE", "City": "BRIDGEPORT", "Phone": 2033351926.0, "Zip": "06604", "State": "CT" }, "geometry": { "type": "Point", "coordinates": [ -73.193324857162963, 41.167476600022219 ] } },
{ "type": "Feature", "properties": { "Vendor": "CVS #2545", "Address": "35 PADANARAM RD", "City": "DANBURY", "Phone": 2037304870.0, "Zip": "06811", "State": "CT" }, "geometry": { "type": "Point", "coordinates": [ -73.463045682028564, 41.417612543534823 ] } },
{ "type": "Feature", "properties": { "Vendor": "CVS #0760", "Address": "713 W MAIN ST", "City": "NEW BRITAIN", "Phone": 8602242831.0, "Zip": "06053", "State": "CT" }, "geometry": { "type": "Point", "coordinates": [ -72.806407189748128, 41.666408108748193 ] } },
{ "type": "Feature", "properties": { "Vendor": "BIG Y SHELTON #90", "Address": "401 BRIDGEPORT AVE", "City": "SHELTON", "Phone": 2034473003.0, "Zip": "06484", "State": "CT" }, "geometry": { "type": "Point", "coordinates": [ -73.110058450865026, 41.293920583737496 ] } },
{ "type": "Feature", "properties": { "Vendor": "STOP & SHOP #2633", "Address": "150 WHALLEY AVE", "City": "NEW HAVEN", "Phone": 2035030105.0, "Zip": "06511", "State": "CT" }, "geometry": { "type": "Point", "coordinates": [ -72.937913924517417, 41.314278556503524 ] } },
{ "type": "Feature", "properties": { "Vendor": "CVS #0145", "Address": "330 MAIN ST", "City": "FARMINGTON", "Phone": 8606775047.0, "Zip": "06032", "State": "CT" }, "geometry": { "type": "Point", "coordinates": [ -72.843885908935746, 41.704518474285976 ] } },
{ "type": "Feature", "properties": { "Vendor": "COUNTRY FARMS", "Address": "66 MAIN ST", "City": "JEWETT CITY", "Phone": 8603761137.0, "Zip": "06351", "State": "CT" }, "geometry": { "type": "Point", "coordinates": [ -71.982516143212905, 41.606385447164477 ] } },
{ "type": "Feature", "properties": { "Vendor": "NEW BRITAIN XPRESSMART LLC", "Address": "168 FARMINGTON AVENUE", "City": "NEW BRITAIN", "Phone": 8608278522.0, "Zip": "06053", "State": "CT" }, "geometry": { "type": "Point", "coordinates": [ -72.788310892900739, 41.682147470803507 ] } },
{ "type": "Feature", "properties": { "Vendor": "GRADE A SHOPRITE #397", "Address": "1990 W MAIN ST", "City": "STAMFORD", "Phone": 2039780464.0, "Zip": "06902", "State": "CT" }, "geometry": { "type": "Point", "coordinates": [ -73.564840700862064, 41.047255628268559 ] } },
{ "type": "Feature", "properties": { "Vendor": "WALGREENS #5723", "Address": "960 NORTH AVE", "City": "BRIDGEPORT", "Phone": 2033346978.0, "Zip": "06606", "State": "CT" }, "geometry": { "type": "Point", "coordinates": [ -73.197313255047419, 41.191520183055651 ] } },
{ "type": "Feature", "properties": { "Vendor": "LA SUPERMARKETA", "Address": "270 GRAND AVENUE", "City": "NEW HAVEN", "Phone": 2038657936.0, "Zip": "06513", "State": "CT" }, "geometry": { "type": "Point", "coordinates": [ -72.897937874909559, 41.308515536965928 ] } },
{ "type": "Feature", "properties": { "Vendor": "CVS #2502", "Address": "581 HIGHLAND AVE", "City": "CHESHIRE", "Phone": 2032502250.0, "Zip": "06410", "State": "CT" }, "geometry": { "type": "Point", "coordinates": [ -72.899271925963987, 41.51341451580118 ] } },
{ "type": "Feature", "properties": { "Vendor": "FOOD BAZAAR FARMERS MARKET", "Address": "345 HUNTINGTON TPKE", "City": "BRIDGEPORT", "Phone": 2036106995.0, "Zip": "06610", "State": "CT" }, "geometry": { "type": "Point", "coordinates": [ -73.175714816319683, 41.214587580336982 ] } },
{ "type": "Feature", "properties": { "Vendor": "SIGOURNEY MARKET INC", "Address": "97 ASHLEY ST", "City": "HARTFORD", "Phone": 8607279198.0, "Zip": "06105", "State": "CT" }, "geometry": { "type": "Point", "coordinates": [ -72.691587947509859, 41.774052461554071 ] } },
{ "type": "Feature", "properties": { "Vendor": "STOP & SHOP #2604", "Address": "931 TORRINGFORD ST", "City": "TORRINGTON", "Phone": 8604825125.0, "Zip": "06790", "State": "CT" }, "geometry": { "type": "Point", "coordinates": [ -73.082062800494228, 41.819152469461216 ] } },
{ "type": "Feature", "properties": { "Vendor": "CVS #2109", "Address": "22 WINDSOR AVE", "City": "VERNON ROCKVILLE", "Phone": 8608706764.0, "Zip": "06066", "State": "CT" }, "geometry": { "type": "Point", "coordinates": [ -72.467209998941996, 41.868072411319432 ] } },
{ "type": "Feature", "properties": { "Vendor": "STOP & SHOP #612", "Address": "11 GLEN RIDGE RD", "City": "GREENWICH", "Phone": 2035310541.0, "Zip": "06831", "State": "CT" }, "geometry": { "type": "Point", "coordinates": [ -73.667526340721011, 41.03911167498164 ] } },
{ "type": "Feature", "properties": { "Vendor": "ALBANY GROCERY", "Address": "1160 ALBANY AVE", "City": "HARTFORD", "Phone": 8602784775.0, "Zip": "06112", "State": "CT" }, "geometry": { "type": "Point", "coordinates": [ -72.695679906235497, 41.782298450866421 ] } },
{ "type": "Feature", "properties": { "Vendor": "CVS #3719", "Address": "11 FOREST ST", "City": "STAMFORD", "Phone": 2033630627.0, "Zip": "06901", "State": "CT" }, "geometry": { "type": "Point", "coordinates": [ -73.537346725539507, 41.056770636437733 ] } },
{ "type": "Feature", "properties": { "Vendor": "NEIGHBORS EXPRESS MART", "Address": "158 FITCH ST", "City": "NEW HAVEN", "Phone": 2037104258.0, "Zip": "06515", "State": "CT" }, "geometry": { "type": "Point", "coordinates": [ -72.953857890084024, 41.327505533642309 ] } },
{ "type": "Feature", "properties": { "Vendor": "SUNSHINE FARMS MINI MARKET", "Address": "219-231 CENTRAL AVE", "City": "NORWICH", "Phone": 8602223435.0, "Zip": "06360", "State": "CT" }, "geometry": { "type": "Point", "coordinates": [ -72.056308135819236, 41.533782466099836 ] } },
{ "type": "Feature", "properties": { "Vendor": "M&A CONVENIENCE STORE", "Address": "275 HIGH STREET", "City": "HARTFORD", "Phone": 8602442528.0, "Zip": "06103", "State": "CT" }, "geometry": { "type": "Point", "coordinates": [ -72.677371908608592, 41.773146461017689 ] } },
{ "type": "Feature", "properties": { "Vendor": "CVS #2018", "Address": "540 W MAIN ST", "City": "MERIDEN", "Phone": 2036391473.0, "Zip": "06451", "State": "CT" }, "geometry": { "type": "Point", "coordinates": [ -72.822243935772605, 41.540277500892763 ] } },
{ "type": "Feature", "properties": { "Vendor": "CVS #0953", "Address": "45 S MAIN ST", "City": "UNIONVILLE", "Phone": 8606759212.0, "Zip": "06085", "State": "CT" }, "geometry": { "type": "Point", "coordinates": [ -72.886121883817282, 41.756565474260846 ] } },
{ "type": "Feature", "properties": { "Vendor": "BIG Y WORLD CLASS MARKET #31", "Address": "70 WAUREGAN RD", "City": "DANIELSON", "Phone": 8607797223.0, "Zip": "06239", "State": "CT" }, "geometry": { "type": "Point", "coordinates": [ -71.88384523899245, 41.793038405764577 ] } },
{ "type": "Feature", "properties": { "Vendor": "CVS #4436", "Address": "241 W MIDDLE TPKE", "City": "MANCHESTER", "Phone": 8605331156.0, "Zip": "06040", "State": "CT" }, "geometry": { "type": "Point", "coordinates": [ -72.53650099493791, 41.781697463275378 ] } },
{ "type": "Feature", "properties": { "Vendor": "KIKO SUPERMARKET", "Address": "488 PARK AVE", "City": "EAST HARTFORD", "Phone": 8606558836.0, "Zip": "06108", "State": "CT" }, "geometry": { "type": "Point", "coordinates": [ -72.61355295529944, 41.783778440469121 ] } },
{ "type": "Feature", "properties": { "Vendor": "JAY SHREE KRASHNA LLC", "Address": "156 BANK STREET", "City": "WATERBURY", "Phone": 2035759868.0, "Zip": "06702", "State": "CT" }, "geometry": { "type": "Point", "coordinates": [ -73.04113660127058, 41.553923826038307 ] } },
{ "type": "Feature", "properties": { "Vendor": "TARGET T-1802", "Address": "3265 BERLIN TPKE", "City": "NEWINGTON", "Phone": 8606160022.0, "Zip": "06111", "State": "CT" }, "geometry": { "type": "Point", "coordinates": [ -72.725193926169226, 41.661047456512037 ] } },
{ "type": "Feature", "properties": { "Vendor": "PRICE CHOPPER #221", "Address": "675 POQUONOCK AVE", "City": "WINDSOR", "Phone": 8606871411.0, "Zip": "06095", "State": "CT" }, "geometry": { "type": "Point", "coordinates": [ -72.660423029389619, 41.872253846814033 ] } },
{ "type": "Feature", "properties": { "Vendor": "STOP & SHOP #608", "Address": "99 LINWOOD AVE", "City": "COLCHESTER", "Phone": 8605372361.0, "Zip": "06415", "State": "CT" }, "geometry": { "type": "Point", "coordinates": [ -72.333884070442949, 41.571071459266953 ] } },
{ "type": "Feature", "properties": { "Vendor": "BIG Y WORLD CLASS MARKET #87", "Address": "1289 FOXON RD", "City": "NORTH BRANFORD", "Phone": 2034849530.0, "Zip": "06471", "State": "CT" }, "geometry": { "type": "Point", "coordinates": [ -72.779341944711405, 41.326205535635566 ] } },
{ "type": "Feature", "properties": { "Vendor": "STOP & SHOP #620 SUPER", "Address": "100 QUALITY ST", "City": "TRUMBULL", "Phone": 2034451006.0, "Zip": "06611", "State": "CT" }, "geometry": { "type": "Point", "coordinates": [ -73.216985052314868, 41.256014287027007 ] } },
{ "type": "Feature", "properties": { "Vendor": "CVS #2151", "Address": "1770 KINGS HIGHWAY", "City": "FAIRFIELD", "Phone": 2032550060.0, "Zip": "06824", "State": "CT" }, "geometry": { "type": "Point", "coordinates": [ -73.239852489959702, 41.157180993536706 ] } },
{ "type": "Feature", "properties": { "Vendor": "CVS #1244", "Address": "26 WATERBURY RD", "City": "PROSPECT", "Phone": 2037583378.0, "Zip": "06712", "State": "CT" }, "geometry": { "type": "Point", "coordinates": [ -72.980312834016715, 41.507353522596496 ] } },
{ "type": "Feature", "properties": { "Vendor": "BURRITO MEAT-AMERICA'S FOOD BSKT", "Address": "250 ALLEN STREET", "City": "NEW BRITAIN", "Phone": 8605058130.0, "Zip": "06053", "State": "CT" }, "geometry": { "type": "Point", "coordinates": [ -72.77861242702528, 41.682440290024523 ] } },
{ "type": "Feature", "properties": { "Vendor": "CVS #5703", "Address": "60 MIDDLE ST", "City": "BRISTOL", "Phone": 8605850122.0, "Zip": "06010", "State": "CT" }, "geometry": { "type": "Point", "coordinates": [ -72.923077854605509, 41.667112481352312 ] } },
{ "type": "Feature", "properties": { "Vendor": "VICTORIA'S MARKET", "Address": "120 WEBSTER ST", "City": "HARTFORD", "Phone": 8605248122.0, "Zip": "06114", "State": "CT" }, "geometry": { "type": "Point", "coordinates": [ -72.682930954432564, 41.747217468345731 ] } },
{ "type": "Feature", "properties": { "Vendor": "TARGET T-1289", "Address": "475 HARTFORD RD", "City": "NEW BRITAIN", "Phone": 8603489100.0, "Zip": "06053", "State": "CT" }, "geometry": { "type": "Point", "coordinates": [ -72.763150939996805, 41.710945462144593 ] } },
{ "type": "Feature", "properties": { "Vendor": "STOP & SHOP #637", "Address": "2200 BEDFORD ST", "City": "STAMFORD", "Phone": 2033560109.0, "Zip": "06905", "State": "CT" }, "geometry": { "type": "Point", "coordinates": [ -73.545015744870184, 41.067439623353096 ] } },
{ "type": "Feature", "properties": { "Vendor": "CVS #4473", "Address": "15 CHESTERFIELD RD", "City": "EAST LYME", "Phone": 8607390276.0, "Zip": "06333", "State": "CT" }, "geometry": { "type": "Point", "coordinates": [ -72.208649101949874, 41.367194524423638 ] } },
{ "type": "Feature", "properties": { "Vendor": "ADAM'S HOMETOWN MARKETS", "Address": "316 MARLBOROUGH STREET", "City": "PORTLAND", "Phone": 8603420672.0, "Zip": "06480", "State": "CT" }, "geometry": { "type": "Point", "coordinates": [ -72.626915981078682, 41.569509502345596 ] } },
{ "type": "Feature", "properties": { "Vendor": "STOP & SHOP #606", "Address": "195 WEST ST", "City": "CROMWELL", "Phone": 8606358300.0, "Zip": "06416", "State": "CT" }, "geometry": { "type": "Point", "coordinates": [ -72.678014977590394, 41.601834474584138 ] } },
{ "type": "Feature", "properties": { "Vendor": "STOP & SHOP #665 SUPER", "Address": "248 FLANDERS RD", "City": "EAST LYME", "Phone": 8606912146.0, "Zip": "06333", "State": "CT" }, "geometry": { "type": "Point", "coordinates": [ -72.223339119360247, 41.368431513353599 ] } },
{ "type": "Feature", "properties": { "Vendor": "STOP & SHOP #632", "Address": "80 TOWN LINE RD", "City": "ROCKY HILL", "Phone": 8605631169.0, "Zip": "06067", "State": "CT" }, "geometry": { "type": "Point", "coordinates": [ -72.657443946655178, 41.680704479354468 ] } },
{ "type": "Feature", "properties": { "Vendor": "BURNSIDE SUPERMARKET", "Address": "1150 BURNSIDE AVE", "City": "EAST HARTFORD", "Phone": 8602919965.0, "Zip": "06108", "State": "CT" }, "geometry": { "type": "Point", "coordinates": [ -72.589335968632938, 41.784399454499152 ] } },
{ "type": "Feature", "properties": { "Vendor": "WALMART STORE #1891", "Address": "420 BUCKLAND HILLS DR", "City": "MANCHESTER", "Phone": 8606445100.0, "Zip": "06042", "State": "CT" }, "geometry": { "type": "Point", "coordinates": [ -72.537688960821725, 41.806566439096557 ] } },
{ "type": "Feature", "properties": { "Vendor": "CVS #1028", "Address": "724 QUEEN ST", "City": "SOUTHINGTON", "Phone": 8602761293.0, "Zip": "06489", "State": "CT" }, "geometry": { "type": "Point", "coordinates": [ -72.874604907192733, 41.636251491247123 ] } },
{ "type": "Feature", "properties": { "Vendor": "BIG Y WORLD CLASS MARKET #47", "Address": "403 MAIN ST", "City": "ANSONIA", "Phone": 2037366191.0, "Zip": "06401", "State": "CT" }, "geometry": { "type": "Point", "coordinates": [ -73.076614845693001, 41.339729534403155 ] } },
{ "type": "Feature", "properties": { "Vendor": "CVS #0071", "Address": "989 BOSTON POST RD", "City": "MILFORD", "Phone": 8607839058.0, "Zip": "06460", "State": "CT" }, "geometry": { "type": "Point", "coordinates": [ -73.046829852484095, 41.231260561283662 ] } },
{ "type": "Feature", "properties": { "Vendor": "CVS #1151", "Address": "464 REIDVILLE DR", "City": "WATERBURY", "Phone": 2035960905.0, "Zip": "06705", "State": "CT" }, "geometry": { "type": "Point", "coordinates": [ -72.996429886389166, 41.538628494218429 ] } },
{ "type": "Feature", "properties": { "Vendor": "SHOPRITE OF WATERBURY #314", "Address": "943 WOLCOTT ST", "City": "WATERBURY", "Phone": 2037565614.0, "Zip": "06705", "State": "CT" }, "geometry": { "type": "Point", "coordinates": [ -73.008766868523864, 41.568091507005761 ] } },
{ "type": "Feature", "properties": { "Vendor": "GERRY'S SHELL", "Address": "141 WILLOW ST", "City": "NEW HAVEN", "Phone": 2037774359.0, "Zip": "06511", "State": "CT" }, "geometry": { "type": "Point", "coordinates": [ -72.907866905380359, 41.320718538023037 ] } },
{ "type": "Feature", "properties": { "Vendor": "CVS #2253", "Address": "111 ALBANY TPKE", "City": "CANTON", "Phone": 8606938077.0, "Zip": "06019", "State": "CT" }, "geometry": { "type": "Point", "coordinates": [ -72.885514861642278, 41.82465044552427 ] } },
{ "type": "Feature", "properties": { "Vendor": "JR SUPERMARKET 2", "Address": "224 CAPEN STREET", "City": "HARTFORD", "Phone": 8603566818.0, "Zip": "06112", "State": "CT" }, "geometry": { "type": "Point", "coordinates": [ -72.683228927627027, 41.786333456288368 ] } },
{ "type": "Feature", "properties": { "Vendor": "CVS #11007", "Address": "123  CHURCH STREET", "City": "NEW HAVEN", "Phone": 2034989442.0, "Zip": "06510", "State": "CT" }, "geometry": { "type": "Point", "coordinates": [ -72.925332858997933, 41.306112530846001 ] } },
{ "type": "Feature", "properties": { "Vendor": "STOP & SHOP #645", "Address": "1309 CORBIN AVE", "City": "NEW BRITAIN", "Phone": 8603489856.0, "Zip": "06053", "State": "CT" }, "geometry": { "type": "Point", "coordinates": [ -72.80500889703022, 41.668811488062083 ] } },
{ "type": "Feature", "properties": { "Vendor": "STOP & SHOP #2616", "Address": "55 VILLAGE GREEN DRIVE", "City": "LITCHFIELD", "Phone": 8603934051.0, "Zip": "06759", "State": "CT" }, "geometry": { "type": "Point", "coordinates": [ -73.201302761001173, 41.745435778794921 ] } },
{ "type": "Feature", "properties": { "Vendor": "STAMFORD MARKET", "Address": "181 STILLWATER AVENUE", "City": "STAMFORD", "Phone": 2033160661.0, "Zip": "06902", "State": "CT" }, "geometry": { "type": "Point", "coordinates": [ -73.553825709685213, 41.052557599182613 ] } },
{ "type": "Feature", "properties": { "Vendor": "CVS #1180", "Address": "358 W MAIN ST", "City": "AVON", "Phone": 8606788697.0, "Zip": "06001", "State": "CT" }, "geometry": { "type": "Point", "coordinates": [ -72.860520873179098, 41.815867427674597 ] } },
{ "type": "Feature", "properties": { "Vendor": "C TOWN SUPERMARKET", "Address": "160 COLONY ST", "City": "MERIDEN", "Phone": 2032357000.0, "Zip": "06451", "State": "CT" }, "geometry": { "type": "Point", "coordinates": [ -72.800632881546647, 41.542216486344316 ] } },
{ "type": "Feature", "properties": { "Vendor": "CVS #1276", "Address": "81 NORTH ST", "City": "BRISTOL", "Phone": 8605848729.0, "Zip": "06010", "State": "CT" }, "geometry": { "type": "Point", "coordinates": [ -72.946268897563996, 41.681763459139667 ] } },
{ "type": "Feature", "properties": { "Vendor": "BIG Y OLD LYME #06", "Address": "90 HALLS RD", "City": "OLD LYME", "Phone": 8604341433.0, "Zip": "06371", "State": "CT" }, "geometry": { "type": "Point", "coordinates": [ -72.335674124220205, 41.322975513891222 ] } },
{ "type": "Feature", "properties": { "Vendor": "C TOWN SUPERMARKET", "Address": "442 MAIN ST", "City": "EAST HARTFORD", "Phone": 8605682221.0, "Zip": "06118", "State": "CT" }, "geometry": { "type": "Point", "coordinates": [ -72.640193990641322, 41.753359472623586 ] } },
{ "type": "Feature", "properties": { "Vendor": "DREAM FOOD MART", "Address": "284 COLONIAL AVE", "City": "WATERBURY", "Phone": 2037540884.0, "Zip": "06704", "State": "CT" }, "geometry": { "type": "Point", "coordinates": [ -73.060484868805545, 41.587462502797152 ] } },
{ "type": "Feature", "properties": { "Vendor": "CVS #1051", "Address": "593 NEWFIELD AVE", "City": "STAMFORD", "Phone": 2039674600.0, "Zip": "06905", "State": "CT" }, "geometry": { "type": "Point", "coordinates": [ -73.532528723225923, 41.080197631465325 ] } },
{ "type": "Feature", "properties": { "Vendor": "TARGET T-2045", "Address": "1191 BOSTON POST RD", "City": "MILFORD", "Phone": 2033065063.0, "Zip": "06460", "State": "CT" }, "geometry": { "type": "Point", "coordinates": [ -73.037900865013597, 41.234372551563986 ] } },
{ "type": "Feature", "properties": { "Vendor": "STOP & SHOP #675", "Address": "920 WOLCOTT ST", "City": "WATERBURY", "Phone": 2037559489.0, "Zip": "06705", "State": "CT" }, "geometry": { "type": "Point", "coordinates": [ -73.007058888291269, 41.564885513676089 ] } },
{ "type": "Feature", "properties": { "Vendor": "CVS #2153", "Address": "150 S MAIN ST", "City": "WEST HARTFORD", "Phone": 8605616162.0, "Zip": "06107", "State": "CT" }, "geometry": { "type": "Point", "coordinates": [ -72.653909966370165, 41.710155464611098 ] } },
{ "type": "Feature", "properties": { "Vendor": "CVS #2475", "Address": "122 E PUTNAM RD", "City": "COS COB", "Phone": 2034222129.0, "Zip": "06807", "State": "CT" }, "geometry": { "type": "Point", "coordinates": [ -73.600946659323895, 41.037537611026956 ] } },
{ "type": "Feature", "properties": { "Vendor": "FLATBUSH MARKET", "Address": "273 HILLSIDE AVE", "City": "HARTFORD", "Phone": 8603100057.0, "Zip": "06106", "State": "CT" }, "geometry": { "type": "Point", "coordinates": [ -72.698576945369553, 41.744443436754032 ] } },
{ "type": "Feature", "properties": { "Vendor": "BIG Y WORLD CLASS MARKET #58", "Address": "22 SPENCER PLAIN RD", "City": "OLD SAYBROOK", "Phone": 8603950511.0, "Zip": "06475", "State": "CT" }, "geometry": { "type": "Point", "coordinates": [ -72.415949095684098, 41.288033548364481 ] } },
{ "type": "Feature", "properties": { "Vendor": "TOWN MARKET", "Address": "1637 PARK ST", "City": "HARTFORD", "Phone": 8602317192.0, "Zip": "06106", "State": "CT" }, "geometry": { "type": "Point", "coordinates": [ -72.705583961358201, 41.757117458700264 ] } },
{ "type": "Feature", "properties": { "Vendor": "EL MERCADITO GROCERY", "Address": "33 BOUTON ST", "City": "NORWALK", "Phone": 2036041244.0, "Zip": "06854", "State": "CT" }, "geometry": { "type": "Point", "coordinates": [ -73.427272756547225, 41.091169620245289 ] } },
{ "type": "Feature", "properties": { "Vendor": "WATERBURY XPRESS FOODMART LLC", "Address": "2406 NORTH MAIN STREET", "City": "WATERBURY", "Phone": 2035911843.0, "Zip": "06704", "State": "CT" }, "geometry": { "type": "Point", "coordinates": [ -73.02870581524634, 41.58331551322842 ] } },
{ "type": "Feature", "properties": { "Vendor": "STOP & SHOP #659", "Address": "72 NEWTOWN RD", "City": "DANBURY", "Phone": 2037980555.0, "Zip": "06810", "State": "CT" }, "geometry": { "type": "Point", "coordinates": [ -73.420801742164542, 41.40744655171207 ] } },
{ "type": "Feature", "properties": { "Vendor": "ESHALS GROCERY STORE", "Address": "265 BROAD ST", "City": "NEW LONDON", "Phone": 8605749118.0, "Zip": "06320", "State": "CT" }, "geometry": { "type": "Point", "coordinates": [ -72.108904151864706, 41.360935504226056 ] } },
{ "type": "Feature", "properties": { "Vendor": "CONGRESS DELI INC", "Address": "620 CONGRESS AVENUE", "City": "NEW HAVEN", "Phone": 2036005150.0, "Zip": "06519", "State": "CT" }, "geometry": { "type": "Point", "coordinates": [ -72.939126870641488, 41.300003549823138 ] } },
{ "type": "Feature", "properties": { "Vendor": "CVS #2896", "Address": "675 WASHINGTON ST", "City": "MIDDLETOWN", "Phone": 8603441320.0, "Zip": "06457", "State": "CT" }, "geometry": { "type": "Point", "coordinates": [ -72.674607990334081, 41.554191494869436 ] } },
{ "type": "Feature", "properties": { "Vendor": "BIG Y WORLD CLASS MARKET #49", "Address": "6 QUEEN ST", "City": "NEWTOWN", "Phone": 2032707838.0, "Zip": "06470", "State": "CT" }, "geometry": { "type": "Point", "coordinates": [ -73.304386784292248, 41.41227154817868 ] } },
{ "type": "Feature", "properties": { "Vendor": "FOOD BAZAAR", "Address": "500 SYLVAN AVE", "City": "BRIDGEPORT", "Phone": 2036833740.0, "Zip": "06606", "State": "CT" }, "geometry": { "type": "Point", "coordinates": [ -73.191637829516765, 41.207660567932571 ] } },
{ "type": "Feature", "properties": { "Vendor": "LA GRAN PLACITA MEAT MARKET", "Address": "2110 E MAIN ST", "City": "BRIDGEPORT", "Phone": 2035797736.0, "Zip": "06610", "State": "CT" }, "geometry": { "type": "Point", "coordinates": [ -73.179002785438485, 41.203452559916329 ] } },
{ "type": "Feature", "properties": { "Vendor": "STOP & SHOP #611", "Address": "120 SALMON BROOK ST", "City": "GRANBY", "Phone": 8608448253.0, "Zip": "06035", "State": "CT" }, "geometry": { "type": "Point", "coordinates": [ -72.789548883906093, 41.935265433338238 ] } },
{ "type": "Feature", "properties": { "Vendor": "PRICERITE OF WETHERSFIELD", "Address": "160 SILAS DEANE HWY", "City": "WETHERSFIELD", "Phone": 8605632229.0, "Zip": "06109", "State": "CT" }, "geometry": { "type": "Point", "coordinates": [ -72.66805964693998, 41.723550219517399 ] } },
{ "type": "Feature", "properties": { "Vendor": "BIG Y WORLD CLASS MARKET #36", "Address": "275 NEW BRITAIN AVE", "City": "PLAINVILLE", "Phone": 8607475724.0, "Zip": "06062", "State": "CT" }, "geometry": { "type": "Point", "coordinates": [ -72.839675933655997, 41.677022484188456 ] } },
{ "type": "Feature", "properties": { "Vendor": "STOP & SHOP #2612", "Address": "25 ROUTE 39", "City": "NEW FAIRFIELD", "Phone": 2033120482.0, "Zip": "06812", "State": "CT" }, "geometry": { "type": "Point", "coordinates": [ -73.484540727398851, 41.468524548840762 ] } },
{ "type": "Feature", "properties": { "Vendor": "WALMART SUPERCENTER #5777", "Address": "450 PROVIDENCE RD", "City": "BROOKLYN", "Phone": 8604125137.0, "Zip": "06234", "State": "CT" }, "geometry": { "type": "Point", "coordinates": [ -71.913284232388023, 41.798638438288172 ] } },
{ "type": "Feature", "properties": { "Vendor": "STOP & SHOP #699", "Address": "1739 ELLINGTON RD", "City": "SOUTH WINDSOR", "Phone": 8606484026.0, "Zip": "06074", "State": "CT" }, "geometry": { "type": "Point", "coordinates": [ -72.555406369793289, 41.824920248049175 ] } },
{ "type": "Feature", "properties": { "Vendor": "CVS #0350", "Address": "566 FARMINGTON AVE", "City": "HARTFORD", "Phone": 8602339673.0, "Zip": "06105", "State": "CT" }, "geometry": { "type": "Point", "coordinates": [ -72.711518933671414, 41.766535447840596 ] } },
{ "type": "Feature", "properties": { "Vendor": "CVS #2210", "Address": "1239 E PUTNAM AVE", "City": "RIVERSIDE", "Phone": 2036984005.0, "Zip": "06878", "State": "CT" }, "geometry": { "type": "Point", "coordinates": [ -73.577444732358202, 41.042709620145793 ] } },
{ "type": "Feature", "properties": { "Vendor": "CVS #1060", "Address": "326 MAIN ST", "City": "SOUTHINGTON", "Phone": 8606211992.0, "Zip": "06489", "State": "CT" }, "geometry": { "type": "Point", "coordinates": [ -72.880079884509925, 41.59459147092516 ] } },
{ "type": "Feature", "properties": { "Vendor": "CVS #2056", "Address": "25 BROADWAY AVENUE", "City": "MYSTIC", "Phone": 8605365628.0, "Zip": "06355", "State": "CT" }, "geometry": { "type": "Point", "coordinates": [ -71.963196212636632, 41.352574511258972 ] } },
{ "type": "Feature", "properties": { "Vendor": "BD HALAL MEAT & FISH LLC", "Address": "978 STATE STREET", "City": "BRIDGEPORT", "Phone": 6467644500.0, "Zip": "06605", "State": "CT" }, "geometry": { "type": "Point", "coordinates": [ -73.202567216923939, 41.172564774758165 ] } },
{ "type": "Feature", "properties": { "Vendor": "BIG Y WORLD CLASS MARKET #73", "Address": "135 WEST RD", "City": "ELLINGTON", "Phone": 8608960457.0, "Zip": "06029", "State": "CT" }, "geometry": { "type": "Point", "coordinates": [ -72.46119698976544, 41.8879014340041 ] } },
{ "type": "Feature", "properties": { "Vendor": "STOP & SHOP #616", "Address": "161 W PUTNAM AVE", "City": "GREENWICH", "Phone": 2036250622.0, "Zip": "06830", "State": "CT" }, "geometry": { "type": "Point", "coordinates": [ -73.63109367303494, 41.027571614924398 ] } },
{ "type": "Feature", "properties": { "Vendor": "JUNCO & DAUGHTER MARKET", "Address": "533 HARRAL AVE", "City": "BRIDGEPORT", "Phone": 2033376188.0, "Zip": "06604", "State": "CT" }, "geometry": { "type": "Point", "coordinates": [ -73.197158905782061, 41.18441909769497 ] } },
{ "type": "Feature", "properties": { "Vendor": "CVS #0629", "Address": "146 SOUTH ST", "City": "DANBURY", "Phone": 2037949438.0, "Zip": "06810", "State": "CT" }, "geometry": { "type": "Point", "coordinates": [ -73.444144748979355, 41.385539531352478 ] } },
{ "type": "Feature", "properties": { "Vendor": "ADAM'S SUPERMARKET", "Address": "201 MAIN ST", "City": "TERRYVILLE", "Phone": 8605839177.0, "Zip": "06786", "State": "CT" }, "geometry": { "type": "Point", "coordinates": [ -73.009962893294457, 41.678302268671501 ] } },
{ "type": "Feature", "properties": { "Vendor": "CVS #2119", "Address": "1055 FARMINGTON AVE", "City": "KENSINGTON", "Phone": 8608290561.0, "Zip": "06037", "State": "CT" }, "geometry": { "type": "Point", "coordinates": [ -72.759828947083591, 41.631163463462769 ] } },
{ "type": "Feature", "properties": { "Vendor": "STOP & SHOP #674", "Address": "1391 MAIN ST", "City": "WILLIMANTIC", "Phone": 8604568768.0, "Zip": "06226", "State": "CT" }, "geometry": { "type": "Point", "coordinates": [ -72.230786099192756, 41.71698343077405 ] } },
{ "type": "Feature", "properties": { "Vendor": "STOP & SHOP #678 SUPER", "Address": "2020 NORWICH NEW LONDON TPKE", "City": "UNCASVILLE", "Phone": 8608486960.0, "Zip": "06382", "State": "CT" }, "geometry": { "type": "Point", "coordinates": [ -72.099459167964852, 41.48001047310045 ] } },
{ "type": "Feature", "properties": { "Vendor": "CVS #5263", "Address": "150 WASHINGTON ST", "City": "HARTFORD", "Phone": 8605951750.0, "Zip": "06106", "State": "CT" }, "geometry": { "type": "Point", "coordinates": [ -72.681622958591916, 41.758165447524213 ] } },
{ "type": "Feature", "properties": { "Vendor": "CVS #0854", "Address": "327 MAIN AVE", "City": "NORWALK", "Phone": 2038476057.0, "Zip": "06851", "State": "CT" }, "geometry": { "type": "Point", "coordinates": [ -73.425332762475833, 41.136473588677852 ] } },
{ "type": "Feature", "properties": { "Vendor": "STOP & SHOP #642 SUPER", "Address": "747 PINE ST", "City": "BRISTOL", "Phone": 8605823154.0, "Zip": "06010", "State": "CT" }, "geometry": { "type": "Point", "coordinates": [ -72.895268888731934, 41.66962646435784 ] } },
{ "type": "Feature", "properties": { "Vendor": "ACME #2439", "Address": "1201 HIGH RIDGE RD", "City": "STAMFORD", "Phone": 2033210429.0, "Zip": "06905", "State": "CT" }, "geometry": { "type": "Point", "coordinates": [ -73.546341675373625, 41.109842615829926 ] } },
{ "type": "Feature", "properties": { "Vendor": "GRADE A SHOPRITE-DANBURY #388", "Address": "1 PADANARAM RD", "City": "DANBURY", "Phone": 4753296114.0, "Zip": "06811", "State": "CT" }, "geometry": { "type": "Point", "coordinates": [ -73.456349716734309, 41.413271556014536 ] } },
{ "type": "Feature", "properties": { "Vendor": "WALMART SUPERCENTER #5439", "Address": "315 FOXON BLVD", "City": "NEW HAVEN", "Phone": 2034677509.0, "Zip": "06513", "State": "CT" }, "geometry": { "type": "Point", "coordinates": [ -72.87686393239585, 41.320072544514261 ] } },
{ "type": "Feature", "properties": { "Vendor": "PIMPO FOOD MARKET", "Address": "881 BALDWIN STREET", "City": "WATERBURY", "Phone": 2037530028.0, "Zip": "06706", "State": "CT" }, "geometry": { "type": "Point", "coordinates": [ -73.033205809275344, 41.540783523338021 ] } },
{ "type": "Feature", "properties": { "Vendor": "CVS #2572", "Address": "1 HAWLEY LN", "City": "STRATFORD", "Phone": 2033837735.0, "Zip": "06614", "State": "CT" }, "geometry": { "type": "Point", "coordinates": [ -73.153282838086639, 41.230576559969307 ] } },
{ "type": "Feature", "properties": { "Vendor": "CVS #0935", "Address": "891 N COLONY RD", "City": "WALLINGFORD", "Phone": 2032948890.0, "Zip": "06492", "State": "CT" }, "geometry": { "type": "Point", "coordinates": [ -72.811329951255985, 41.481124493983074 ] } },
{ "type": "Feature", "properties": { "Vendor": "CAMPBELL DELI & GROCERY", "Address": "739 CAMPBELL AVE", "City": "WEST HAVEN", "Phone": 2039333354.0, "Zip": "06516", "State": "CT" }, "geometry": { "type": "Point", "coordinates": [ -72.954417888648294, 41.278996535450645 ] } },
{ "type": "Feature", "properties": { "Vendor": "UTUADO GROCERY", "Address": "60 SELLECK ST", "City": "STAMFORD", "Phone": 2033571821.0, "Zip": "06902", "State": "CT" }, "geometry": { "type": "Point", "coordinates": [ -73.54955169551846, 41.040251626487503 ] } },
{ "type": "Feature", "properties": { "Vendor": "SHOP SMART", "Address": "284 PUTNAM ST", "City": "NEW HAVEN", "Phone": 2034982382.0, "Zip": "06519", "State": "CT" }, "geometry": { "type": "Point", "coordinates": [ -72.937839912844737, 41.294690555915132 ] } },
{ "type": "Feature", "properties": { "Vendor": "EXPRESS SHOP 3", "Address": "131 NORTH ST", "City": "NEW BRITAIN", "Phone": 8608267767.0, "Zip": "06051", "State": "CT" }, "geometry": { "type": "Point", "coordinates": [ -72.777951954314702, 41.673548477455512 ] } },
{ "type": "Feature", "properties": { "Vendor": "WALMART SUPERCENTER #5095", "Address": "495 FLATBUSH AVE", "City": "HARTFORD", "Phone": 8609530040.0, "Zip": "06106", "State": "CT" }, "geometry": { "type": "Point", "coordinates": [ -72.713547940730663, 41.739796468438257 ] } },
{ "type": "Feature", "properties": { "Vendor": "MOON MART", "Address": "229 WHITEWOOD RD", "City": "WATERBURY", "Phone": 2035738887.0, "Zip": "06708", "State": "CT" }, "geometry": { "type": "Point", "coordinates": [ -73.081417182092181, 41.578639730284984 ] } },
{ "type": "Feature", "properties": { "Vendor": "CVS #2682", "Address": "47 MAIN ST", "City": "WINSTED", "Phone": 8607386250.0, "Zip": "06098", "State": "CT" }, "geometry": { "type": "Point", "coordinates": [ -73.059791833100434, 41.920291427253979 ] } },
{ "type": "Feature", "properties": { "Vendor": "LOMBARD DELI & GROCERY", "Address": "297 LOMBARD ST", "City": "NEW HAVEN", "Phone": 2036244455.0, "Zip": "06513", "State": "CT" }, "geometry": { "type": "Point", "coordinates": [ -72.89558691991995, 41.315482531383019 ] } },
{ "type": "Feature", "properties": { "Vendor": "STOP & SHOP #605", "Address": "55 OAK ST", "City": "GLASTONBURY", "Phone": 8606528925.0, "Zip": "06033", "State": "CT" }, "geometry": { "type": "Point", "coordinates": [ -72.59496098331789, 41.706499444765058 ] } },
{ "type": "Feature", "properties": { "Vendor": "CVS #0738", "Address": "467 MAIN ST", "City": "RIDGEFIELD", "Phone": 2034318481.0, "Zip": "06877", "State": "CT" }, "geometry": { "type": "Point", "coordinates": [ -73.499529671906828, 41.283402584469172 ] } },
{ "type": "Feature", "properties": { "Vendor": "BIG Y WORLD CLASS MARKET #82", "Address": "83 STONY HILL RD", "City": "BETHEL", "Phone": 2037918589.0, "Zip": "06801", "State": "CT" }, "geometry": { "type": "Point", "coordinates": [ -73.379063733363779, 41.412585536101069 ] } },
{ "type": "Feature", "properties": { "Vendor": "C TOWN SUPERMARKET", "Address": "1744 PARK STREET", "City": "HARTFORD", "Phone": 8602365520.0, "Zip": "06106", "State": "CT" }, "geometry": { "type": "Point", "coordinates": [ -72.707613974259417, 41.757335472110881 ] } },
{ "type": "Feature", "properties": { "Vendor": "STOP & SHOP #2607", "Address": "91 VOLUNTOWN RD", "City": "PAWCATUCK", "Phone": 8605992433.0, "Zip": "06379", "State": "CT" }, "geometry": { "type": "Point", "coordinates": [ -71.846512275887562, 41.406793507562618 ] } },
{ "type": "Feature", "properties": { "Vendor": "STOP & SHOP #698 SUPER", "Address": "2145 FAIRFIELD AVE", "City": "BRIDGEPORT", "Phone": 2033330333.0, "Zip": "06605", "State": "CT" }, "geometry": { "type": "Point", "coordinates": [ -73.217858847839594, 41.163857589345973 ] } },
{ "type": "Feature", "properties": { "Vendor": "STOP & SHOP #694", "Address": "79 WASHINGTON AVE", "City": "NORTH HAVEN", "Phone": 2032341795.0, "Zip": "06473", "State": "CT" }, "geometry": { "type": "Point", "coordinates": [ -72.860086884855207, 41.393880509469504 ] } },
{ "type": "Feature", "properties": { "Vendor": "STOP & SHOP #682", "Address": "220 ROUTE 12", "City": "GROTON", "Phone": 8604454440.0, "Zip": "06340", "State": "CT" }, "geometry": { "type": "Point", "coordinates": [ -72.066974197995009, 41.368828487963214 ] } },
{ "type": "Feature", "properties": { "Vendor": "CVS #1098", "Address": "47 HAZARD AVE", "City": "ENFIELD", "Phone": 8607451212.0, "Zip": "06082", "State": "CT" }, "geometry": { "type": "Point", "coordinates": [ -72.576712975214946, 41.989713526850622 ] } },
{ "type": "Feature", "properties": { "Vendor": "STOP & SHOP #607", "Address": "498 BUSHY HILL RD", "City": "SIMSBURY", "Phone": 8606514787.0, "Zip": "06070", "State": "CT" }, "geometry": { "type": "Point", "coordinates": [ -72.863116915297837, 41.819334433371274 ] } },
{ "type": "Feature", "properties": { "Vendor": "BARGAIN FOOD CENTER LLC", "Address": "626  SOUTH MAIN STREET", "City": "WATERBURY", "Phone": 2037548744.0, "Zip": "06706", "State": "CT" }, "geometry": { "type": "Point", "coordinates": [ -73.038168130950069, 41.547232683343417 ] } },
{ "type": "Feature", "properties": { "Vendor": "STOP & SHOP #626", "Address": "148 HEIGHTS RD", "City": "DARIEN", "Phone": 2036558755.0, "Zip": "06820", "State": "CT" }, "geometry": { "type": "Point", "coordinates": [ -73.494211314518736, 41.069118898410998 ] } },
{ "type": "Feature", "properties": { "Vendor": "VISEL'S PHARMACY", "Address": "714 DIXWELL AVE", "City": "NEW HAVEN", "Phone": 2035626878.0, "Zip": "06511", "State": "CT" }, "geometry": { "type": "Point", "coordinates": [ -72.935501863630279, 41.33266455068204 ] } },
{ "type": "Feature", "properties": { "Vendor": "BIG Y WORLD CLASS MARKET #59", "Address": "504 WINSTED RD", "City": "TORRINGTON", "Phone": 8604890246.0, "Zip": "06790", "State": "CT" }, "geometry": { "type": "Point", "coordinates": [ -73.110521782137795, 41.826015446104819 ] } },
{ "type": "Feature", "properties": { "Vendor": "STOP & SHOP #654", "Address": "485 BROAD ST", "City": "MERIDEN", "Phone": 2032381235.0, "Zip": "06450", "State": "CT" }, "geometry": { "type": "Point", "coordinates": [ -72.79138496289471, 41.533086499274233 ] } },
{ "type": "Feature", "properties": { "Vendor": "PRICE CHOPPER #205", "Address": "35 TALCOTTVILLE RD", "City": "VERNON", "Phone": 8608751211.0, "Zip": "06066", "State": "CT" }, "geometry": { "type": "Point", "coordinates": [ -72.498766012026294, 41.827126446031627 ] } },
{ "type": "Feature", "properties": { "Vendor": "STAR SUPERMARKET & DELI", "Address": "583 BURNSIDE AVE", "City": "EAST HARTFORD", "Phone": 8602827827.0, "Zip": "06108", "State": "CT" }, "geometry": { "type": "Point", "coordinates": [ -72.614493991778801, 41.778348435080815 ] } },
{ "type": "Feature", "properties": { "Vendor": "WILLIAMS GROCERY & DELI", "Address": "247 SIGOURNEY ST", "City": "HARTFORD", "Phone": 8605489325.0, "Zip": "06105", "State": "CT" }, "geometry": { "type": "Point", "coordinates": [ -72.692763927768411, 41.774427467593583 ] } },
{ "type": "Feature", "properties": { "Vendor": "UNITED GROCERY", "Address": "237 JEFFERSON AVENUE", "City": "NEW LONDON", "Phone": 8606298015.0, "Zip": "06320", "State": "CT" }, "geometry": { "type": "Point", "coordinates": [ -72.111742179729319, 41.35619252172657 ] } },
{ "type": "Feature", "properties": { "Vendor": "CVS #1148", "Address": "905 S MAIN ST", "City": "CHESHIRE", "Phone": 2032723255.0, "Zip": "06410", "State": "CT" }, "geometry": { "type": "Point", "coordinates": [ -72.906081886372334, 41.480376496729143 ] } },
{ "type": "Feature", "properties": { "Vendor": "KRAUSZER'S FOOD STORE", "Address": "911 CAMPBELL AVE", "City": "WEST HAVEN", "Phone": 2039321416.0, "Zip": "06516", "State": "CT" }, "geometry": { "type": "Point", "coordinates": [ -72.956925997126206, 41.283602172375915 ] } },
{ "type": "Feature", "properties": { "Vendor": "CVS #0840", "Address": "908 MAPLE AVE", "City": "HARTFORD", "Phone": 8609566739.0, "Zip": "06114", "State": "CT" }, "geometry": { "type": "Point", "coordinates": [ -72.686733907271162, 41.734340479149388 ] } },
{ "type": "Feature", "properties": { "Vendor": "TARGET T-1267", "Address": "900 HARTFORD TPKE", "City": "WATERFORD", "Phone": 8604423300.0, "Zip": "06385", "State": "CT" }, "geometry": { "type": "Point", "coordinates": [ -72.150110160126985, 41.37756050364785 ] } },
{ "type": "Feature", "properties": { "Vendor": "STOP & SHOP #622", "Address": "211 HIGH ST", "City": "TORRINGTON", "Phone": 8604824460.0, "Zip": "06790", "State": "CT" }, "geometry": { "type": "Point", "coordinates": [ -73.12729581113534, 41.800338455008436 ] } },
{ "type": "Feature", "properties": { "Vendor": "SAVE-A-LOT #845", "Address": "205 UNION ST", "City": "WATERBURY", "Phone": 2037540573.0, "Zip": "06706", "State": "CT" }, "geometry": { "type": "Point", "coordinates": [ -73.034723173006086, 41.551934788647038 ] } },
{ "type": "Feature", "properties": { "Vendor": "ROCKVILLE CORNER MARKET", "Address": "20 E MAIN ST", "City": "VERNON", "Phone": 8608716894.0, "Zip": "06066", "State": "CT" }, "geometry": { "type": "Point", "coordinates": [ -72.447831044825321, 41.866603440572817 ] } },
{ "type": "Feature", "properties": { "Vendor": "PRICERITE OF WEST HARTFORD", "Address": "983 NEW BRITAIN AVE", "City": "WEST HARTFORD", "Phone": 8609535816.0, "Zip": "06110", "State": "CT" }, "geometry": { "type": "Point", "coordinates": [ -72.71902392218729, 41.728723474736924 ] } },
{ "type": "Feature", "properties": { "Vendor": "MELO MINI MARKET", "Address": "517 ALBANY AVE", "City": "HARTFORD", "Phone": 8605240578.0, "Zip": "06120", "State": "CT" }, "geometry": { "type": "Point", "coordinates": [ -72.685479972629125, 41.777536440851797 ] } },
{ "type": "Feature", "properties": { "Vendor": "FERNANDES FOOD STORE", "Address": "99 TOWN HILL AVENUE", "City": "DANBURY", "Phone": 2037489181.0, "Zip": "06810", "State": "CT" }, "geometry": { "type": "Point", "coordinates": [ -73.446012243315693, 41.394135103421696 ] } },
{ "type": "Feature", "properties": { "Vendor": "CVS #0839", "Address": "14 FARMINGTON AVE", "City": "PLAINVILLE", "Phone": 8607930613.0, "Zip": "06062", "State": "CT" }, "geometry": { "type": "Point", "coordinates": [ -72.857422931658178, 41.675309475586708 ] } },
{ "type": "Feature", "properties": { "Vendor": "KEY FOOD MARKETPLACE", "Address": "286 FAIRFIELD AVENUE", "City": "WATERBURY", "Phone": 2037547817.0, "Zip": "06708", "State": "CT" }, "geometry": { "type": "Point", "coordinates": [ -73.059744833234731, 41.535846500983389 ] } },
{ "type": "Feature", "properties": { "Vendor": "PRICE CHOPPER #243", "Address": "1220 STORRS RD", "City": "STORRS", "Phone": 8605536555.0, "Zip": "06268", "State": "CT" }, "geometry": { "type": "Point", "coordinates": [ -72.242017030248036, 41.802397201507993 ] } },
{ "type": "Feature", "properties": { "Vendor": "KRAUSZER  FOOD STORE", "Address": "36  FAIRVIEW AVE", "City": "HAMDEN", "Phone": 2037872005.0, "Zip": "06514", "State": "CT" }, "geometry": { "type": "Point", "coordinates": [ -72.941244033928086, 41.339284069808528 ] } },
{ "type": "Feature", "properties": { "Vendor": "CVS #1903", "Address": "799 PARK AVE", "City": "BLOOMFIELD", "Phone": 8602431698.0, "Zip": "06002", "State": "CT" }, "geometry": { "type": "Point", "coordinates": [ -72.733631840683628, 41.82910389196941 ] } },
{ "type": "Feature", "properties": { "Vendor": "SHOPRITE OF EAST HAVEN #326", "Address": "745 FOXON RD", "City": "EAST HAVEN", "Phone": 4752025180.0, "Zip": "06513", "State": "CT" }, "geometry": { "type": "Point", "coordinates": [ -72.854596910402265, 41.323434523737419 ] } },
{ "type": "Feature", "properties": { "Vendor": "CVS #3795", "Address": "93 OLD RIDGEFIELD RD", "City": "WILTON", "Phone": 2037625020.0, "Zip": "06897", "State": "CT" }, "geometry": { "type": "Point", "coordinates": [ -73.432431087786227, 41.194287352298367 ] } },
{ "type": "Feature", "properties": { "Vendor": "MAMBO GROCERY", "Address": "731 NOBLE AVE", "City": "BRIDGEPORT", "Phone": 2036960075.0, "Zip": "06608", "State": "CT" }, "geometry": { "type": "Point", "coordinates": [ -73.184328812256993, 41.191665594270596 ] } },
{ "type": "Feature", "properties": { "Vendor": "STOP & SHOP #662", "Address": "380 MAIN AVE", "City": "NORWALK", "Phone": 2038401001.0, "Zip": "06851", "State": "CT" }, "geometry": { "type": "Point", "coordinates": [ -73.42396274021722, 41.141319585105393 ] } },
{ "type": "Feature", "properties": { "Vendor": "CINDY MARKET", "Address": "874 N MAIN ST", "City": "WATERBURY", "Phone": 2035741486.0, "Zip": "06704", "State": "CT" }, "geometry": { "type": "Point", "coordinates": [ -73.030230819990692, 41.564351502890645 ] } },
{ "type": "Feature", "properties": { "Vendor": "BIG Y WORLD CLASS MARKET #60", "Address": "67 PROSPECT HILL RD", "City": "EAST WINDSOR", "Phone": 8606234000.0, "Zip": "06088", "State": "CT" }, "geometry": { "type": "Point", "coordinates": [ -72.608371927190944, 41.922238402014813 ] } },
{ "type": "Feature", "properties": { "Vendor": "BETTER VAL-U #7", "Address": "4 N CANTERBURY RD", "City": "CANTERBURY", "Phone": 8605469436.0, "Zip": "06331", "State": "CT" }, "geometry": { "type": "Point", "coordinates": [ -71.971455214632826, 41.699071424858985 ] } },
{ "type": "Feature", "properties": { "Vendor": "CVS #1968", "Address": "369 MAIN ST", "City": "EAST HAVEN", "Phone": 2034676369.0, "Zip": "06512", "State": "CT" }, "geometry": { "type": "Point", "coordinates": [ -72.875425935578477, 41.280279550396344 ] } },
{ "type": "Feature", "properties": { "Vendor": "BEST MARKET", "Address": "175 LOWREY PLACE", "City": "NEWINGTON", "Phone": 8606163971.0, "Zip": "06111", "State": "CT" }, "geometry": { "type": "Point", "coordinates": [ -72.719367916743579, 41.694612487763173 ] } },
{ "type": "Feature", "properties": { "Vendor": "CVS #1910", "Address": "260 N MAIN ST", "City": "MANCHESTER", "Phone": 8606454510.0, "Zip": "06040", "State": "CT" }, "geometry": { "type": "Point", "coordinates": [ -72.526317991312212, 41.794442437335825 ] } },
{ "type": "Feature", "properties": { "Vendor": "WALMART STORE #3543", "Address": "67 NEWTOWN RD", "City": "DANBURY", "Phone": 2037911929.0, "Zip": "06810", "State": "CT" }, "geometry": { "type": "Point", "coordinates": [ -73.414831734226141, 41.407391524489647 ] } },
{ "type": "Feature", "properties": { "Vendor": "BIG Y WORLD CLASS MARKET #34", "Address": "141-B STORRS RD", "City": "MANSFIELD CENTER", "Phone": 8604568051.0, "Zip": "06250", "State": "CT" }, "geometry": { "type": "Point", "coordinates": [ -72.198230253895062, 41.738079151779601 ] } },
{ "type": "Feature", "properties": { "Vendor": "CVS #0718", "Address": "24 PERSHING DR", "City": "ANSONIA", "Phone": 2037357252.0, "Zip": "06401", "State": "CT" }, "geometry": { "type": "Point", "coordinates": [ -73.08333587219731, 41.33373454753535 ] } },
{ "type": "Feature", "properties": { "Vendor": "CVS #1241", "Address": "734 BRIDGEPORT AVE", "City": "MILFORD", "Phone": 2038778127.0, "Zip": "06460", "State": "CT" }, "geometry": { "type": "Point", "coordinates": [ -73.082146823741795, 41.211063574475816 ] } },
{ "type": "Feature", "properties": { "Vendor": "CRESPO & SONS", "Address": "81 WOODWARD AVE", "City": "NORWALK", "Phone": 2038386198.0, "Zip": "06854", "State": "CT" }, "geometry": { "type": "Point", "coordinates": [ -73.416042768952764, 41.089546590899779 ] } },
{ "type": "Feature", "properties": { "Vendor": "JR SUPERMARKET", "Address": "194 WESTLAND STREET", "City": "HARTFORD", "Phone": 8609061295.0, "Zip": "06120", "State": "CT" }, "geometry": { "type": "Point", "coordinates": [ -72.680843942210444, 41.791389460419829 ] } },
{ "type": "Feature", "properties": { "Vendor": "CVS #1960", "Address": "1279 W MAIN ST", "City": "WATERBURY", "Phone": 2037555490.0, "Zip": "06708", "State": "CT" }, "geometry": { "type": "Point", "coordinates": [ -73.063951876827488, 41.551440526353879 ] } },
{ "type": "Feature", "properties": { "Vendor": "FERRARO'S FOODLAND", "Address": "664 GRAND AVE", "City": "NEW HAVEN", "Phone": 2037763462.0, "Zip": "06511", "State": "CT" }, "geometry": { "type": "Point", "coordinates": [ -72.912781885500237, 41.308134538322065 ] } },
{ "type": "Feature", "properties": { "Vendor": "CVS #8249", "Address": "57 PROVIDENCE PIKE", "City": "PUTNAM", "Phone": 8609632548.0, "Zip": "06260", "State": "CT" }, "geometry": { "type": "Point", "coordinates": [ -71.876656158731564, 41.924233395938884 ] } },
{ "type": "Feature", "properties": { "Vendor": "CVS #0623", "Address": "397 POST RD E", "City": "WESTPORT", "Phone": 2032227501.0, "Zip": "06880", "State": "CT" }, "geometry": { "type": "Point", "coordinates": [ -73.35184780239419, 41.140321591705039 ] } },
{ "type": "Feature", "properties": { "Vendor": "STOP & SHOP #679", "Address": "240 CHASE AVE", "City": "WATERBURY", "Phone": 2037564670.0, "Zip": "06704", "State": "CT" }, "geometry": { "type": "Point", "coordinates": [ -73.033313299002927, 41.580895115449927 ] } },
{ "type": "Feature", "properties": { "Vendor": "C TOWN SUPERMARKET", "Address": "325 FERRY ST", "City": "NEW HAVEN", "Phone": 2037773998.0, "Zip": "06513", "State": "CT" }, "geometry": { "type": "Point", "coordinates": [ -72.895180900923634, 41.30875756447265 ] } },
{ "type": "Feature", "properties": { "Vendor": "WALMART STORE #2900", "Address": "80 TOWN LINE RD", "City": "ROCKY HILL", "Phone": 8605634355.0, "Zip": "06067", "State": "CT" }, "geometry": { "type": "Point", "coordinates": [ -72.657443946655178, 41.680704479354468 ] } },
{ "type": "Feature", "properties": { "Vendor": "CVS #1123", "Address": "22 DEPOT HILL RD", "City": "SOUTHBURY", "Phone": 2032621833.0, "Zip": "06488", "State": "CT" }, "geometry": { "type": "Point", "coordinates": [ -73.217854804702426, 41.475301516586043 ] } },
{ "type": "Feature", "properties": { "Vendor": "HILL STREET MINI MARKET", "Address": "262 HILL ST", "City": "WATERBURY", "Phone": 2037571099.0, "Zip": "06704", "State": "CT" }, "geometry": { "type": "Point", "coordinates": [ -73.033552901772779, 41.569594555440894 ] } },
{ "type": "Feature", "properties": { "Vendor": "PRICE CHOPPER #203", "Address": "410 QUEEN ST", "City": "SOUTHINGTON", "Phone": 8606212128.0, "Zip": "06489", "State": "CT" }, "geometry": { "type": "Point", "coordinates": [ -72.873719920083801, 41.627621688430963 ] } },
{ "type": "Feature", "properties": { "Vendor": "BIG Y WORLD CLASS MARKET #61", "Address": "995 POQUONNOCK RD", "City": "GROTON", "Phone": 8604491229.0, "Zip": "06340", "State": "CT" }, "geometry": { "type": "Point", "coordinates": [ -72.049424175256604, 41.344965506688624 ] } },
{ "type": "Feature", "properties": { "Vendor": "J&H GROCERY STORE LLC", "Address": "129 WOOD AVE", "City": "BRIDGEPORT", "Phone": 2036901241.0, "Zip": "06605", "State": "CT" }, "geometry": { "type": "Point", "coordinates": [ -73.203549853252724, 41.177284599648253 ] } },
{ "type": "Feature", "properties": { "Vendor": "JUNCO 7", "Address": "1100 PEMBROKE ST", "City": "BRIDGEPORT", "Phone": 2033340850.0, "Zip": "06608", "State": "CT" }, "geometry": { "type": "Point", "coordinates": [ -73.177517718786333, 41.189170810085727 ] } },
{ "type": "Feature", "properties": { "Vendor": "CVS #3373", "Address": "961 BLACK ROCK TPKE", "City": "FAIRFIELD", "Phone": 2033314731.0, "Zip": "06825", "State": "CT" }, "geometry": { "type": "Point", "coordinates": [ -73.236185788732925, 41.171828568690707 ] } },
{ "type": "Feature", "properties": { "Vendor": "ADAM'S IGA SUPERMARKET", "Address": "1391 NEW HAVEN AVE", "City": "MILFORD", "Phone": 2038787363.0, "Zip": "06460", "State": "CT" }, "geometry": { "type": "Point", "coordinates": [ -73.05720885834269, 41.225291568040397 ] } },
{ "type": "Feature", "properties": { "Vendor": "PACI'S MARKET", "Address": "255 LINDLEY ST", "City": "BRIDGEPORT", "Phone": 2033341511.0, "Zip": "06606", "State": "CT" }, "geometry": { "type": "Point", "coordinates": [ -73.192094811609522, 41.195797579101473 ] } },
{ "type": "Feature", "properties": { "Vendor": "ACME #2494", "Address": "160 W PUTNAM AVE", "City": "GREENWICH", "Phone": 2036222944.0, "Zip": "06830", "State": "CT" }, "geometry": { "type": "Point", "coordinates": [ -73.631113706270341, 41.026548645560055 ] } },
{ "type": "Feature", "properties": { "Vendor": "WALMART SUPERCENTER #2284", "Address": "1100 NEW HAVEN RD", "City": "NAUGATUCK", "Phone": 2037299100.0, "Zip": "06770", "State": "CT" }, "geometry": { "type": "Point", "coordinates": [ -73.028843872628727, 41.470779516327077 ] } },
{ "type": "Feature", "properties": { "Vendor": "STOP & SHOP #628", "Address": "597 FARMINGTON AVE", "City": "BRISTOL", "Phone": 8605825674.0, "Zip": "06010", "State": "CT" }, "geometry": { "type": "Point", "coordinates": [ -72.92334087783729, 41.69199646055511 ] } },
{ "type": "Feature", "properties": { "Vendor": "GEISSLER'S SUPERMARKET", "Address": "318 BROAD ST", "City": "WINDSOR", "Phone": 8606888867.0, "Zip": "06095", "State": "CT" }, "geometry": { "type": "Point", "coordinates": [ -72.646046982183478, 41.849512415081307 ] } },
{ "type": "Feature", "properties": { "Vendor": "AMIGO MARKET & DELI", "Address": "527 FARMINGTON AVE", "City": "HARTFORD", "Phone": 8602323963.0, "Zip": "06105", "State": "CT" }, "geometry": { "type": "Point", "coordinates": [ -72.709748926856975, 41.766015434154475 ] } },
{ "type": "Feature", "properties": { "Vendor": "CVS #1213", "Address": "94 PARK ST", "City": "NEW CANAAN", "Phone": 2039660009.0, "Zip": "06840", "State": "CT" }, "geometry": { "type": "Point", "coordinates": [ -73.494931704600006, 41.146167595601824 ] } },
{ "type": "Feature", "properties": { "Vendor": "CVS #0172", "Address": "2 SHORTBEACH RD", "City": "BRANFORD", "Phone": 2034884372.0, "Zip": "06405", "State": "CT" }, "geometry": { "type": "Point", "coordinates": [ -72.829139908637202, 41.27495553212767 ] } },
{ "type": "Feature", "properties": { "Vendor": "FAIRWAY MARKET", "Address": "699 CANAL ST", "City": "STAMFORD", "Phone": 2033889815.0, "Zip": "06902", "State": "CT" }, "geometry": { "type": "Point", "coordinates": [ -73.534141738228328, 41.045724631058285 ] } },
{ "type": "Feature", "properties": { "Vendor": "GRADE A SHOPRITE-FAIRFIELD 399", "Address": "1975 BLACK ROCK TPKE", "City": "FAIRFIELD", "Phone": 2036150140.0, "Zip": "06825", "State": "CT" }, "geometry": { "type": "Point", "coordinates": [ -73.249564471247652, 41.180780605843964 ] } },
{ "type": "Feature", "properties": { "Vendor": "STOP & SHOP #615", "Address": "42 TOWN ST", "City": "NORWICH", "Phone": 8608871611.0, "Zip": "06360", "State": "CT" }, "geometry": { "type": "Point", "coordinates": [ -72.09342813606645, 41.545469478075461 ] } },
{ "type": "Feature", "properties": { "Vendor": "STOP & SHOP #610", "Address": "1380 BERLIN TPKE", "City": "WETHERSFIELD", "Phone": 8609563800.0, "Zip": "06109", "State": "CT" }, "geometry": { "type": "Point", "coordinates": [ -72.693270951974583, 41.718296471731342 ] } },
{ "type": "Feature", "properties": { "Vendor": "SHOPRITE OF HAMDEN #324", "Address": "2100 DIXWELL AVE", "City": "HAMDEN", "Phone": 2032305000.0, "Zip": "06514", "State": "CT" }, "geometry": { "type": "Point", "coordinates": [ -72.921407863838837, 41.370343545472622 ] } },
{ "type": "Feature", "properties": { "Vendor": "GEISSLER'S SUPERMARKET", "Address": "965 SULLIVAN AVE", "City": "SOUTH WINDSOR", "Phone": 8606443007.0, "Zip": "06074", "State": "CT" }, "geometry": { "type": "Point", "coordinates": [ -72.563359534691998, 41.844925164415862 ] } },
{ "type": "Feature", "properties": { "Vendor": "CROSS ROADS", "Address": "1062 ALBANY AVE", "City": "HARTFORD", "Phone": 8602473172.0, "Zip": "06112", "State": "CT" }, "geometry": { "type": "Point", "coordinates": [ -72.693837984044052, 41.781694451049212 ] } },
{ "type": "Feature", "properties": { "Vendor": "WALMART SUPERCENTER #1980", "Address": "625 SCHOOL ST", "City": "PUTNAM", "Phone": 8609283999.0, "Zip": "06260", "State": "CT" }, "geometry": { "type": "Point", "coordinates": [ -71.889226158784354, 41.923338376312216 ] } },
{ "type": "Feature", "properties": { "Vendor": "CITY SUPERMARKET II", "Address": "2251 MAIN ST", "City": "BRIDGEPORT", "Phone": 2032758485.0, "Zip": "06606", "State": "CT" }, "geometry": { "type": "Point", "coordinates": [ -73.19876479272213, 41.193506596113068 ] } },
{ "type": "Feature", "properties": { "Vendor": "MLC MARKET & DELI", "Address": "1377 STRATFORD AVE", "City": "BRIDGEPORT", "Phone": 2033309418.0, "Zip": "06607", "State": "CT" }, "geometry": { "type": "Point", "coordinates": [ -73.163584867617516, 41.179276598109873 ] } },
{ "type": "Feature", "properties": { "Vendor": "KEKO'S DELI LLC", "Address": "564 EAST ST", "City": "NEW BRITAIN", "Phone": 8608270246.0, "Zip": "06051", "State": "CT" }, "geometry": { "type": "Point", "coordinates": [ -72.765485644320293, 41.668648757968164 ] } },
{ "type": "Feature", "properties": { "Vendor": "CVS #1070", "Address": "90 MAIN ST", "City": "WINDSOR LOCKS", "Phone": 8606541650.0, "Zip": "06096", "State": "CT" }, "geometry": { "type": "Point", "coordinates": [ -72.628143991832701, 41.931168438256279 ] } },
{ "type": "Feature", "properties": { "Vendor": "STOP & SHOP #625", "Address": "200 NEW HARTFORD RD", "City": "WINSTED", "Phone": 8603799995.0, "Zip": "06098", "State": "CT" }, "geometry": { "type": "Point", "coordinates": [ -73.049850816253496, 41.908692425349017 ] } },
{ "type": "Feature", "properties": { "Vendor": "SAVE-A-LOT #829", "Address": "60 E MAIN ST", "City": "NEW BRITAIN", "Phone": 8603489416.0, "Zip": "06051", "State": "CT" }, "geometry": { "type": "Point", "coordinates": [ -72.780203919743229, 41.671734466009305 ] } },
{ "type": "Feature", "properties": { "Vendor": "CVS #0288", "Address": "839 FARMINGTON AVE", "City": "BRISTOL", "Phone": 8605838351.0, "Zip": "06010", "State": "CT" }, "geometry": { "type": "Point", "coordinates": [ -72.915846871639488, 41.693560481560517 ] } },
{ "type": "Feature", "properties": { "Vendor": "C TOWN SUPERMARKET", "Address": "47 MAIN ST", "City": "NEW BRITAIN", "Phone": 8602233800.0, "Zip": "06051", "State": "CT" }, "geometry": { "type": "Point", "coordinates": [ -72.780587894835762, 41.665260494901787 ] } },
{ "type": "Feature", "properties": { "Vendor": "J & D MARKET", "Address": "25 FRANKLIN AVE", "City": "HARTFORD", "Phone": 8602186550.0, "Zip": "06114", "State": "CT" }, "geometry": { "type": "Point", "coordinates": [ -72.678129969993336, 41.751548438565848 ] } },
{ "type": "Feature", "properties": { "Vendor": "CVS #1156", "Address": "1240 FARMINGTON AVE", "City": "WEST HARTFORD", "Phone": 8605219877.0, "Zip": "06107", "State": "CT" }, "geometry": { "type": "Point", "coordinates": [ -72.766536889972443, 41.755202447592985 ] } },
{ "type": "Feature", "properties": { "Vendor": "CVS #0364", "Address": "308 MAIN ST EXT", "City": "MIDDLETOWN", "Phone": 8603448202.0, "Zip": "06457", "State": "CT" }, "geometry": { "type": "Point", "coordinates": [ -72.640069950190025, 41.549334475722169 ] } },
{ "type": "Feature", "properties": { "Vendor": "FAIRFIELD MARKET", "Address": "2262 FAIRFIELD AVE", "City": "BRIDGEPORT", "Phone": 2033686907.0, "Zip": "06605", "State": "CT" }, "geometry": { "type": "Point", "coordinates": [ -73.220412418842756, 41.163820139959036 ] } },
{ "type": "Feature", "properties": { "Vendor": "CVS #0185", "Address": "215 WEST ST", "City": "SEYMOUR", "Phone": 2038889068.0, "Zip": "06483", "State": "CT" }, "geometry": { "type": "Point", "coordinates": [ -73.088916873044894, 41.397150548310975 ] } },
{ "type": "Feature", "properties": { "Vendor": "CVS #7916", "Address": "292 SPIELMAN HWY", "City": "BURLINGTON", "Phone": 8606738006.0, "Zip": "06013", "State": "CT" }, "geometry": { "type": "Point", "coordinates": [ -72.96999285381068, 41.770908461964716 ] } },
{ "type": "Feature", "properties": { "Vendor": "CVS #1125", "Address": "10 LATHROP RD", "City": "PLAINFIELD", "Phone": 8605640082.0, "Zip": "06374", "State": "CT" }, "geometry": { "type": "Point", "coordinates": [ -71.914318231721268, 41.667196434125486 ] } },
{ "type": "Feature", "properties": { "Vendor": "CVS #1102", "Address": "341 COTTAGE GROVE RD", "City": "BLOOMFIELD", "Phone": 8602433328.0, "Zip": "06002", "State": "CT" }, "geometry": { "type": "Point", "coordinates": [ -72.714813938917999, 41.817210454298468 ] } },
{ "type": "Feature", "properties": { "Vendor": "GRADE A MARKET #391", "Address": "563 NEWFIELD AVE", "City": "STAMFORD", "Phone": 2033561662.0, "Zip": "06905", "State": "CT" }, "geometry": { "type": "Point", "coordinates": [ -73.532528723225923, 41.080197631465325 ] } },
{ "type": "Feature", "properties": { "Vendor": "CVS #0123", "Address": "519 BOSTON POST RD", "City": "OLD SAYBROOK", "Phone": 8603881145.0, "Zip": "06475", "State": "CT" }, "geometry": { "type": "Point", "coordinates": [ -72.376284098251261, 41.299649520867895 ] } },
{ "type": "Feature", "properties": { "Vendor": "SUCCESS SUPERMARKET", "Address": "536 SUCCESS AVE", "City": "BRIDGEPORT", "Phone": 2033355764.0, "Zip": "06610", "State": "CT" }, "geometry": { "type": "Point", "coordinates": [ -73.156498323695601, 41.200288605271268 ] } },
{ "type": "Feature", "properties": { "Vendor": "CVS #1166", "Address": "219 BROAD ST", "City": "WINDSOR", "Phone": 8602985924.0, "Zip": "06095", "State": "CT" }, "geometry": { "type": "Point", "coordinates": [ -72.643139970988486, 41.851768445538127 ] } },
{ "type": "Feature", "properties": { "Vendor": "H & D MARKET", "Address": "688 QUINNIPIAC AVE", "City": "NEW HAVEN", "Phone": 2034667777.0, "Zip": "06513", "State": "CT" }, "geometry": { "type": "Point", "coordinates": [ -72.88587718373509, 41.308643733983736 ] } },
{ "type": "Feature", "properties": { "Vendor": "TARGET T-1255", "Address": "90 ELM ST", "City": "ENFIELD", "Phone": 8607412676.0, "Zip": "06082", "State": "CT" }, "geometry": { "type": "Point", "coordinates": [ -72.581854943145743, 41.995470404148783 ] } },
{ "type": "Feature", "properties": { "Vendor": "A-ONE", "Address": "162 WILLOW STREET", "City": "WATERBURY", "Phone": 2037567100.0, "Zip": "06710", "State": "CT" }, "geometry": { "type": "Point", "coordinates": [ -73.047264854066057, 41.562097484713028 ] } },
{ "type": "Feature", "properties": { "Vendor": "PRICERITE OF MAIN ST BRIDGEPORT", "Address": "4425 MAIN STREET", "City": "BRIDGEPORT", "Phone": 2033960839.0, "Zip": "06606", "State": "CT" }, "geometry": { "type": "Point", "coordinates": [ -73.217539829675459, 41.219726567368468 ] } },
{ "type": "Feature", "properties": { "Vendor": "CVS #2022", "Address": "163 MOUNTAIN RD", "City": "SUFFIELD", "Phone": 8606685115.0, "Zip": "06078", "State": "CT" }, "geometry": { "type": "Point", "coordinates": [ -72.657008906665439, 41.982855393690812 ] } },
{ "type": "Feature", "properties": { "Vendor": "HONEY BEE FARM", "Address": "298 BANK ST", "City": "NEW LONDON", "Phone": 8604472827.0, "Zip": "06320", "State": "CT" }, "geometry": { "type": "Point", "coordinates": [ -72.097599148007859, 41.350952533192938 ] } },
{ "type": "Feature", "properties": { "Vendor": "BIG Y WORLD CLASS MARKET #45", "Address": "234 TOLLAND TPKE", "City": "MANCHESTER", "Phone": 8606457312.0, "Zip": "06042", "State": "CT" }, "geometry": { "type": "Point", "coordinates": [ -72.513890984093024, 41.809822429962274 ] } },
{ "type": "Feature", "properties": { "Vendor": "ANAMIL GROCERY", "Address": "546 PARK ST", "City": "HARTFORD", "Phone": 8602467279.0, "Zip": "06106", "State": "CT" }, "geometry": { "type": "Point", "coordinates": [ -72.685637972516275, 41.758163435235119 ] } },
{ "type": "Feature", "properties": { "Vendor": "CVS #1897", "Address": "6 QUEEN ST", "City": "NEWTOWN", "Phone": 2034268362.0, "Zip": "06470", "State": "CT" }, "geometry": { "type": "Point", "coordinates": [ -73.304386784292248, 41.41227154817868 ] } },
{ "type": "Feature", "properties": { "Vendor": "STOP & SHOP #657", "Address": "763 STRAITS TPKE", "City": "WATERTOWN", "Phone": 8602747459.0, "Zip": "06795", "State": "CT" }, "geometry": { "type": "Point", "coordinates": [ -73.097092820086161, 41.571213516856105 ] } },
{ "type": "Feature", "properties": { "Vendor": "CVS #2220", "Address": "3514 MAIN ST", "City": "COVENTRY", "Phone": 8607423543.0, "Zip": "06238", "State": "CT" }, "geometry": { "type": "Point", "coordinates": [ -72.367770068777361, 41.797705422937902 ] } },
{ "type": "Feature", "properties": { "Vendor": "GEISSLER'S SUPERMARKET", "Address": "9-J BANK ST", "City": "GRANBY", "Phone": 8606533990.0, "Zip": "06035", "State": "CT" }, "geometry": { "type": "Point", "coordinates": [ -72.784372891694375, 41.952629422134024 ] } },
{ "type": "Feature", "properties": { "Vendor": "C TOWN SUPERMARKET", "Address": "165 WETHERSFIELD AVE", "City": "HARTFORD", "Phone": 8602474411.0, "Zip": "06114", "State": "CT" }, "geometry": { "type": "Point", "coordinates": [ -72.674607978675951, 41.751175443735193 ] } },
{ "type": "Feature", "properties": { "Vendor": "ACME #2497", "Address": "1261 E PUTNAM AVE", "City": "RIVERSIDE", "Phone": 2036370188.0, "Zip": "06878", "State": "CT" }, "geometry": { "type": "Point", "coordinates": [ -73.577176678916814, 41.042700610281173 ] } },
{ "type": "Feature", "properties": { "Vendor": "CVS #0775", "Address": "2045 DIXWELL AVE", "City": "HAMDEN", "Phone": 2032879549.0, "Zip": "06514", "State": "CT" }, "geometry": { "type": "Point", "coordinates": [ -72.919049867644688, 41.367410549951281 ] } },
{ "type": "Feature", "properties": { "Vendor": "GRADE A SHOPRITE #396", "Address": "49 PERSHING DR", "City": "DERBY", "Phone": 2037361001.0, "Zip": "06418", "State": "CT" }, "geometry": { "type": "Point", "coordinates": [ -73.086355872116201, 41.330553532657341 ] } },
{ "type": "Feature", "properties": { "Vendor": "TORRES MARKET", "Address": "261 SISSON AVE", "City": "HARTFORD", "Phone": 8602363366.0, "Zip": "06105", "State": "CT" }, "geometry": { "type": "Point", "coordinates": [ -72.707609950265763, 41.766138437938835 ] } },
{ "type": "Feature", "properties": { "Vendor": "BIG Y MYSTIC #05", "Address": "79 STONINGTON RD", "City": "MYSTIC", "Phone": 8605365813.0, "Zip": "06355", "State": "CT" }, "geometry": { "type": "Point", "coordinates": [ -71.949844180644121, 41.345598505004546 ] } },
{ "type": "Feature", "properties": { "Vendor": "CVS #1242", "Address": "714 HOPMEADOW ST", "City": "SIMSBURY", "Phone": 8606511438.0, "Zip": "06070", "State": "CT" }, "geometry": { "type": "Point", "coordinates": [ -72.802086870464947, 41.87196342678164 ] } },
{ "type": "Feature", "properties": { "Vendor": "SHOPRITE OF CLINTON", "Address": "266 E MAIN ST", "City": "CLINTON", "Phone": 8606690107.0, "Zip": "06413", "State": "CT" }, "geometry": { "type": "Point", "coordinates": [ -72.501610024102192, 41.270180561643244 ] } },
{ "type": "Feature", "properties": { "Vendor": "WALMART STORE #2170", "Address": "220 SALEM TPKE", "City": "NORWICH", "Phone": 8608897745.0, "Zip": "06360", "State": "CT" }, "geometry": { "type": "Point", "coordinates": [ -72.122148133296278, 41.505243476561276 ] } },
{ "type": "Feature", "properties": { "Vendor": "TARGET T-2433", "Address": "195 RIVER RD", "City": "LISBON", "Phone": 8608232960.0, "Zip": "06351", "State": "CT" }, "geometry": { "type": "Point", "coordinates": [ -71.997263175891476, 41.585793462049622 ] } },
{ "type": "Feature", "properties": { "Vendor": "CVS #1149", "Address": "696 WEST AVE", "City": "NORWALK", "Phone": 2038669447.0, "Zip": "06850", "State": "CT" }, "geometry": { "type": "Point", "coordinates": [ -73.415535747664606, 41.115123586790915 ] } },
{ "type": "Feature", "properties": { "Vendor": "LA PLACITA MARKET", "Address": "596 COVE RD", "City": "STAMFORD", "Phone": 2039619630.0, "Zip": "06902", "State": "CT" }, "geometry": { "type": "Point", "coordinates": [ -73.514520714788347, 41.049106601578707 ] } },
{ "type": "Feature", "properties": { "Vendor": "BIG Y CHESHIRE # 40", "Address": "1021 S MAIN ST", "City": "CHESHIRE", "Phone": 2032722266.0, "Zip": "06410", "State": "CT" }, "geometry": { "type": "Point", "coordinates": [ -72.907631868416701, 41.476307501494624 ] } },
{ "type": "Feature", "properties": { "Vendor": "WILLI QUICK MART", "Address": "18 BOSTON POST RD", "City": "WILLIMANTIC", "Phone": 8604500509.0, "Zip": "06226", "State": "CT" }, "geometry": { "type": "Point", "coordinates": [ -72.19704006611245, 41.716360444645467 ] } },
{ "type": "Feature", "properties": { "Vendor": "CVS #1155", "Address": "308 BERLIN TURNPIKE", "City": "BERLIN", "Phone": 8608290752.0, "Zip": "06037", "State": "CT" }, "geometry": { "type": "Point", "coordinates": [ -72.734123920432211, 41.641623489320175 ] } },
{ "type": "Feature", "properties": { "Vendor": "BIG Y #109 MARLBOROUGH", "Address": "7 E HAMPTON RD", "City": "MARLBOROUGH", "Phone": 8604679136.0, "Zip": "06447", "State": "CT" }, "geometry": { "type": "Point", "coordinates": [ -72.460360434960975, 41.630329020269684 ] } },
{ "type": "Feature", "properties": { "Vendor": "LUCKY STAR MARKET", "Address": "1569 CHAPEL ST", "City": "NEW HAVEN", "Phone": 2037770349.0, "Zip": "06511", "State": "CT" }, "geometry": { "type": "Point", "coordinates": [ -72.948261883134293, 41.312426533960419 ] } },
{ "type": "Feature", "properties": { "Vendor": "CVS #2140", "Address": "526 MERIDEN RD", "City": "WATERBURY", "Phone": 2034657054.0, "Zip": "06705", "State": "CT" }, "geometry": { "type": "Point", "coordinates": [ -73.000966840904951, 41.551990501822623 ] } },
{ "type": "Feature", "properties": { "Vendor": "LA PARADA GROCERY", "Address": "1132 NORMAN STREET", "City": "BRIDGEPORT", "Phone": 2032962510.0, "Zip": "06604", "State": "CT" }, "geometry": { "type": "Point", "coordinates": [ -73.20940222961876, 41.182866404054742 ] } },
{ "type": "Feature", "properties": { "Vendor": "BIG Y WORLD CLASS MARKET #17", "Address": "87 W STAFFORD RD", "City": "STAFFORD SPRINGS", "Phone": 8606845029.0, "Zip": "06076", "State": "CT" }, "geometry": { "type": "Point", "coordinates": [ -72.326957077539902, 41.971133419531256 ] } },
{ "type": "Feature", "properties": { "Vendor": "PAPI'S VARIETY STORE LLC", "Address": "68 LAKE AVENUE", "City": "DANBURY", "Phone": 2037788810.0, "Zip": "06810", "State": "CT" }, "geometry": { "type": "Point", "coordinates": [ -73.46950972171436, 41.388397551535263 ] } },
{ "type": "Feature", "properties": { "Vendor": "CONGRESS MARKET", "Address": "620 CONGRESS AVE", "City": "NEW HAVEN", "Phone": 2035625320.0, "Zip": "06519", "State": "CT" }, "geometry": { "type": "Point", "coordinates": [ -72.939126870641488, 41.300003549823138 ] } },
{ "type": "Feature", "properties": { "Vendor": "BIG Y WORLD CLASS MARKET #35", "Address": "535 MONROE TPKE", "City": "MONROE", "Phone": 2034529002.0, "Zip": "06468", "State": "CT" }, "geometry": { "type": "Point", "coordinates": [ -73.216576826841731, 41.318638538385372 ] } },
{ "type": "Feature", "properties": { "Vendor": "KING OF KINGS SUPERMARKET", "Address": "1380 ALBANY AVE", "City": "HARTFORD", "Phone": 8605414150.0, "Zip": "06112", "State": "CT" }, "geometry": { "type": "Point", "coordinates": [ -72.699360901672236, 41.783518437005839 ] } },
{ "type": "Feature", "properties": { "Vendor": "TARGET T-2305", "Address": "1922 E MAIN ST", "City": "TORRINGTON", "Phone": 8606184007.0, "Zip": "06790", "State": "CT" }, "geometry": { "type": "Point", "coordinates": [ -73.075235826634696, 41.819182434991724 ] } },
{ "type": "Feature", "properties": { "Vendor": "MARKET 32 BY PRICE CHOPPER #248", "Address": "300 OXFORD ROAD", "City": "OXFORD", "Phone": 2034637990.0, "Zip": "06478", "State": "CT" }, "geometry": { "type": "Point", "coordinates": [ -73.108243858220078, 41.424116551063044 ] } },
{ "type": "Feature", "properties": { "Vendor": "SHOPRITE OF WALLINGFORD #321", "Address": "848 N COLONY RD", "City": "WALLINGFORD", "Phone": 2036267760.0, "Zip": "06492", "State": "CT" }, "geometry": { "type": "Point", "coordinates": [ -72.809590958121092, 41.479210528058999 ] } },
{ "type": "Feature", "properties": { "Vendor": "PRICE CHOPPER #209", "Address": "2986 BERLIN TPKE", "City": "NEWINGTON", "Phone": 8606658342.0, "Zip": "06111", "State": "CT" }, "geometry": { "type": "Point", "coordinates": [ -72.718681690051227, 41.667859054067016 ] } },
{ "type": "Feature", "properties": { "Vendor": "GRADE A SHOPRITE #394", "Address": "360 CONNECTICUT AVE", "City": "NORWALK", "Phone": 2038380504.0, "Zip": "06854", "State": "CT" }, "geometry": { "type": "Point", "coordinates": [ -73.440939779633709, 41.102132603875141 ] } },
{ "type": "Feature", "properties": { "Vendor": "CVS #2584", "Address": "252 ORANGE AVE", "City": "WEST HAVEN", "Phone": 2039314541.0, "Zip": "06516", "State": "CT" }, "geometry": { "type": "Point", "coordinates": [ -72.9583610319809, 41.295193131063506 ] } },
{ "type": "Feature", "properties": { "Vendor": "CVS #1268", "Address": "106 BOSTON POST RD", "City": "WATERFORD", "Phone": 8604432326.0, "Zip": "06385", "State": "CT" }, "geometry": { "type": "Point", "coordinates": [ -72.123573149123231, 41.341180535967744 ] } },
{ "type": "Feature", "properties": { "Vendor": "TORRES GROCERY", "Address": "28 WILDMAN ST", "City": "DANBURY", "Phone": 2037486241.0, "Zip": "06810", "State": "CT" }, "geometry": { "type": "Point", "coordinates": [ -73.439530764449032, 41.396939545329715 ] } },
{ "type": "Feature", "properties": { "Vendor": "SAMMY MARKET INC.", "Address": "253 DAVENPORT AVE", "City": "NEW HAVEN", "Phone": 2037451768.0, "Zip": "06519", "State": "CT" }, "geometry": { "type": "Point", "coordinates": [ -72.942324900218026, 41.301217542808445 ] } },
{ "type": "Feature", "properties": { "Vendor": "CVS #0750", "Address": "875 ENFIELD ST", "City": "ENFIELD", "Phone": 8607413015.0, "Zip": "06082", "State": "CT" }, "geometry": { "type": "Point", "coordinates": [ -72.593615000093493, 41.998022401022091 ] } },
{ "type": "Feature", "properties": { "Vendor": "PEOPLE'S PLAZA", "Address": "1631 MAIN ST", "City": "HARTFORD", "Phone": 8605481656.0, "Zip": "06120", "State": "CT" }, "geometry": { "type": "Point", "coordinates": [ -72.676949963775812, 41.776714469283448 ] } },
{ "type": "Feature", "properties": { "Vendor": "C TOWN SUPERMARKET", "Address": "45 NORTH ST", "City": "DANBURY", "Phone": 2037485466.0, "Zip": "06810", "State": "CT" }, "geometry": { "type": "Point", "coordinates": [ -73.456457654902621, 41.405735504088014 ] } },
{ "type": "Feature", "properties": { "Vendor": "CVS #2839", "Address": "2005 NORWICH NEW LONDON TPKE", "City": "UNCASVILLE", "Phone": 8608483202.0, "Zip": "06382", "State": "CT" }, "geometry": { "type": "Point", "coordinates": [ -72.098753160894717, 41.47907450841673 ] } },
{ "type": "Feature", "properties": { "Vendor": "NEIGHBORHOOD FOOD MART", "Address": "130 SCOTT RD", "City": "WATERBURY", "Phone": 2035967644.0, "Zip": "06705", "State": "CT" }, "geometry": { "type": "Point", "coordinates": [ -72.993486832295304, 41.53874948613565 ] } },
{ "type": "Feature", "properties": { "Vendor": "WALMART STORE #2719", "Address": "1400 FARMINGTON AVE", "City": "BRISTOL", "Phone": 8605851700.0, "Zip": "06010", "State": "CT" }, "geometry": { "type": "Point", "coordinates": [ -72.897563851615914, 41.697580483312841 ] } },
{ "type": "Feature", "properties": { "Vendor": "SHOPRITE OF MANCHESTER #330", "Address": "214 SPENCER ST", "City": "MANCHESTER", "Phone": 8606453240.0, "Zip": "06040", "State": "CT" }, "geometry": { "type": "Point", "coordinates": [ -72.570117949217007, 41.765687445856649 ] } },
{ "type": "Feature", "properties": { "Vendor": "CRYSTAL GROCERY", "Address": "226 W MAIN ST", "City": "MERIDEN", "Phone": 2034401518.0, "Zip": "06451", "State": "CT" }, "geometry": { "type": "Point", "coordinates": [ -72.810563924870607, 41.538796503027214 ] } },
{ "type": "Feature", "properties": { "Vendor": "CVS #5450", "Address": "766 NEW LONDON TPKE", "City": "GLASTONBURY", "Phone": 8606334668.0, "Zip": "06033", "State": "CT" }, "geometry": { "type": "Point", "coordinates": [ -72.594194610304982, 41.705242737442319 ] } },
{ "type": "Feature", "properties": { "Vendor": "D&D SUPERMARKET", "Address": "179 MATHER STREET", "City": "HARTFORD", "Phone": 8602166353.0, "Zip": "06120", "State": "CT" }, "geometry": { "type": "Point", "coordinates": [ -72.68452695003991, 41.780092459456931 ] } },
{ "type": "Feature", "properties": { "Vendor": "STOP & SHOP #2610", "Address": "25 OLD KINGS HWY N", "City": "DARIEN", "Phone": 2036621227.0, "Zip": "06820", "State": "CT" }, "geometry": { "type": "Point", "coordinates": [ -73.464895755031961, 41.078676607808504 ] } },
{ "type": "Feature", "properties": { "Vendor": "WEST ROCK ONE STOP FOOD MART", "Address": "122 WILMOT ROAD", "City": "NEW HAVEN", "Phone": 2036916826.0, "Zip": "06515", "State": "CT" }, "geometry": { "type": "Point", "coordinates": [ -72.958580922453791, 41.342446524052683 ] } },
{ "type": "Feature", "properties": { "Vendor": "CVS #2573", "Address": "1425 BARNUM AVE", "City": "STRATFORD", "Phone": 2033837741.0, "Zip": "06614", "State": "CT" }, "geometry": { "type": "Point", "coordinates": [ -73.138589871911762, 41.195869577623561 ] } },
{ "type": "Feature", "properties": { "Vendor": "NORTH MAIN MARKET", "Address": "825 NORTH MAIN STREET", "City": "WATERBURY", "Phone": 2037559454.0, "Zip": "06704", "State": "CT" }, "geometry": { "type": "Point", "coordinates": [ -73.031216866396761, 41.564257500349512 ] } },
{ "type": "Feature", "properties": { "Vendor": "STOP & SHOP #692", "Address": "370 HEMINGWAY AVE", "City": "EAST HAVEN", "Phone": 2034698895.0, "Zip": "06512", "State": "CT" }, "geometry": { "type": "Point", "coordinates": [ -72.869250906143606, 41.278118569409543 ] } },
{ "type": "Feature", "properties": { "Vendor": "PRICE CHOPPER #189", "Address": "251 KENNEDY DR", "City": "PUTNAM", "Phone": 8609283030.0, "Zip": "06260", "State": "CT" }, "geometry": { "type": "Point", "coordinates": [ -71.909611805467023, 41.918102988192217 ] } },
{ "type": "Feature", "properties": { "Vendor": "STOP & SHOP #604", "Address": "727 RUBBER AVE", "City": "NAUGATUCK", "Phone": 2037294182.0, "Zip": "06770", "State": "CT" }, "geometry": { "type": "Point", "coordinates": [ -73.077323860566793, 41.494505538411588 ] } },
{ "type": "Feature", "properties": { "Vendor": "TARGET T-1544", "Address": "21 BROAD ST", "City": "STAMFORD", "Phone": 2033880006.0, "Zip": "06901", "State": "CT" }, "geometry": { "type": "Point", "coordinates": [ -73.541832718694977, 41.054827627973694 ] } },
{ "type": "Feature", "properties": { "Vendor": "WALGREENS #3827", "Address": "161 WASHINGTON ST", "City": "HARTFORD", "Phone": 8605225005.0, "Zip": "06106", "State": "CT" }, "geometry": { "type": "Point", "coordinates": [ -72.683112925367183, 41.75752544653492 ] } },
{ "type": "Feature", "properties": { "Vendor": "GNAZZO FOOD CENTER", "Address": "73 EAST ST", "City": "PLAINVILLE", "Phone": 8607478758.0, "Zip": "06062", "State": "CT" }, "geometry": { "type": "Point", "coordinates": [ -72.860902529087454, 41.669455652996916 ] } },
{ "type": "Feature", "properties": { "Vendor": "CVS #0941", "Address": "844 JONES HILL RD", "City": "NEW HAVEN", "Phone": 2039335499.0, "Zip": "06515", "State": "CT" }, "geometry": { "type": "Point", "coordinates": [ -72.964683336656762, 41.260355577111319 ] } },
{ "type": "Feature", "properties": { "Vendor": "GEISSLER'S SUPERMARKET", "Address": "100 BRIDGE ST", "City": "EAST WINDSOR", "Phone": 8606236336.0, "Zip": "06088", "State": "CT" }, "geometry": { "type": "Point", "coordinates": [ -72.616568856246943, 41.929538670412278 ] } },
{ "type": "Feature", "properties": { "Vendor": "CIBAO MARKET", "Address": "79 MAIN ST", "City": "WILLIMANTIC", "Phone": 8604568883.0, "Zip": "06226", "State": "CT" }, "geometry": { "type": "Point", "coordinates": [ -72.197500759335782, 41.715724860493602 ] } },
{ "type": "Feature", "properties": { "Vendor": "C TOWN SUPERMARKET", "Address": "482 GREENWICH AVE", "City": "NEW HAVEN", "Phone": 2037738998.0, "Zip": "06519", "State": "CT" }, "geometry": { "type": "Point", "coordinates": [ -72.934027909599436, 41.290851560789548 ] } },
{ "type": "Feature", "properties": { "Vendor": "CVS #10130", "Address": "110 MAIN ST", "City": "HEBRON", "Phone": 8602283888.0, "Zip": "06248", "State": "CT" }, "geometry": { "type": "Point", "coordinates": [ -72.35607305102566, 41.660118477799998 ] } },
{ "type": "Feature", "properties": { "Vendor": "STOP & SHOP #635", "Address": "100 DIVISION ST", "City": "ANSONIA", "Phone": 2037323901.0, "Zip": "06401", "State": "CT" }, "geometry": { "type": "Point", "coordinates": [ -73.080103843166938, 41.33265454870196 ] } },
{ "type": "Feature", "properties": { "Vendor": "SHOPRITE OF MILFORD #327", "Address": "935 BOSTON POST ROAD", "City": "MILFORD", "Phone": 2038767868.0, "Zip": "06460", "State": "CT" }, "geometry": { "type": "Point", "coordinates": [ -73.049495883091765, 41.231058557500802 ] } },
{ "type": "Feature", "properties": { "Vendor": "COMPARE SUPERMARKET", "Address": "1954 BALDWIN ST", "City": "WATERBURY", "Phone": 2037534931.0, "Zip": "06706", "State": "CT" }, "geometry": { "type": "Point", "coordinates": [ -73.038629821719908, 41.527341510325613 ] } },
{ "type": "Feature", "properties": { "Vendor": "CVS #0343", "Address": "66 HIGH RIDGE RD", "City": "STAMFORD", "Phone": 2035413972.0, "Zip": "06905", "State": "CT" }, "geometry": { "type": "Point", "coordinates": [ -73.549949749808604, 41.073639632589327 ] } },
{ "type": "Feature", "properties": { "Vendor": "SHOPRITE OF SOUTHINGTON", "Address": "750 QUEEN ST", "City": "SOUTHINGTON", "Phone": 8607360044.0, "Zip": "06489", "State": "CT" }, "geometry": { "type": "Point", "coordinates": [ -72.875075887261147, 41.636797488224005 ] } },
{ "type": "Feature", "properties": { "Vendor": "STOP & SHOP #689", "Address": "286 BROAD ST", "City": "MANCHESTER", "Phone": 8606458050.0, "Zip": "06040", "State": "CT" }, "geometry": { "type": "Point", "coordinates": [ -72.537330971679879, 41.77896844150699 ] } },
{ "type": "Feature", "properties": { "Vendor": "CVS #1284", "Address": "14 E MAIN ST", "City": "CLINTON", "Phone": 8606649335.0, "Zip": "06413", "State": "CT" }, "geometry": { "type": "Point", "coordinates": [ -72.525939998260299, 41.278205520668763 ] } },
{ "type": "Feature", "properties": { "Vendor": "CVS #0377", "Address": "915 POQUONNOCK RD", "City": "GROTON", "Phone": 8604460144.0, "Zip": "06340", "State": "CT" }, "geometry": { "type": "Point", "coordinates": [ -72.051390150452136, 41.345958511020655 ] } },
{ "type": "Feature", "properties": { "Vendor": "JUNCO 9", "Address": "373 HARRAL AVE", "City": "BRIDGEPORT", "Phone": 2033457443.0, "Zip": "06604", "State": "CT" }, "geometry": { "type": "Point", "coordinates": [ -73.198018851607202, 41.182428951000347 ] } },
{ "type": "Feature", "properties": { "Vendor": "PRICE CHOPPER #156", "Address": "990 TORRINGFORD ST", "City": "TORRINGTON", "Phone": 8604965051.0, "Zip": "06790", "State": "CT" }, "geometry": { "type": "Point", "coordinates": [ -73.079030815466837, 41.818880434556952 ] } },
{ "type": "Feature", "properties": { "Vendor": "STOP & SHOP #2614", "Address": "50 WINDSORVILLE RD", "City": "VERNON", "Phone": 8608710498.0, "Zip": "06066", "State": "CT" }, "geometry": { "type": "Point", "coordinates": [ -72.482444018715441, 41.864346405164866 ] } },
{ "type": "Feature", "properties": { "Vendor": "GRADE A SHOPRITE-SOUTHBURY 389", "Address": "775 MAIN ST S", "City": "SOUTHBURY", "Phone": 2032621477.0, "Zip": "06488", "State": "CT" }, "geometry": { "type": "Point", "coordinates": [ -73.231249753271641, 41.462097549905046 ] } },
{ "type": "Feature", "properties": { "Vendor": "CVS #1280", "Address": "99 GREENWICH AVE", "City": "GREENWICH", "Phone": 2038629320.0, "Zip": "06830", "State": "CT" }, "geometry": { "type": "Point", "coordinates": [ -73.625992700466711, 41.029419614038673 ] } },
{ "type": "Feature", "properties": { "Vendor": "TOP FOOD MART", "Address": "757 MERIDEN ROAD", "City": "WATERBURY", "Phone": 2035730029.0, "Zip": "06705", "State": "CT" }, "geometry": { "type": "Point", "coordinates": [ -72.994136847809941, 41.555815499399955 ] } },
{ "type": "Feature", "properties": { "Vendor": "SHOPRITE OF WEST HARTFORD #368", "Address": "46 KANE ST", "City": "WEST HARTFORD", "Phone": 8602331713.0, "Zip": "06119", "State": "CT" }, "geometry": { "type": "Point", "coordinates": [ -72.716753039095636, 41.751701968590815 ] } },
{ "type": "Feature", "properties": { "Vendor": "SHOPRITE OF NORWICH #336", "Address": "634 W MAIN ST", "City": "NORWICH", "Phone": 8608870409.0, "Zip": "06360", "State": "CT" }, "geometry": { "type": "Point", "coordinates": [ -72.102181802466006, 41.515428996450659 ] } },
{ "type": "Feature", "properties": { "Vendor": "SAVE-A-LOT #812", "Address": "311 W MAIN ST", "City": "MERIDEN", "Phone": 2032387204.0, "Zip": "06451", "State": "CT" }, "geometry": { "type": "Point", "coordinates": [ -72.813218891950811, 41.541290495543137 ] } },
{ "type": "Feature", "properties": { "Vendor": "LA PLAZA DEL MERCADO", "Address": "704 PARK ST", "City": "HARTFORD", "Phone": 8605607677.0, "Zip": "06106", "State": "CT" }, "geometry": { "type": "Point", "coordinates": [ -72.688853939677102, 41.758377467886845 ] } },
{ "type": "Feature", "properties": { "Vendor": "CVS #0231", "Address": "142 TALCOTTVILLE RD", "City": "VERNON", "Phone": 8608721329.0, "Zip": "06066", "State": "CT" }, "geometry": { "type": "Point", "coordinates": [ -72.49395002337296, 41.830852453473454 ] } },
{ "type": "Feature", "properties": { "Vendor": "CVS #1044", "Address": "656 NEW HAVEN AVE", "City": "DERBY", "Phone": 2037324501.0, "Zip": "06418", "State": "CT" }, "geometry": { "type": "Point", "coordinates": [ -73.051665707600463, 41.311263167886587 ] } },
{ "type": "Feature", "properties": { "Vendor": "LATINO MARKET LLC", "Address": "652 BALDWIN ST", "City": "WATERBURY", "Phone": 2037591495.0, "Zip": "06706", "State": "CT" }, "geometry": { "type": "Point", "coordinates": [ -73.034111281330624, 41.543377807551373 ] } },
{ "type": "Feature", "properties": { "Vendor": "STOP & SHOP #683", "Address": "180 DANBURY RD", "City": "NEW MILFORD", "Phone": 8603553234.0, "Zip": "06776", "State": "CT" }, "geometry": { "type": "Point", "coordinates": [ -73.418770823275892, 41.549268885285827 ] } },
{ "type": "Feature", "properties": { "Vendor": "SHOPRITE OF EAST HARTFORD #340", "Address": "31 MAIN ST", "City": "EAST HARTFORD", "Phone": 8608958390.0, "Zip": "06118", "State": "CT" }, "geometry": { "type": "Point", "coordinates": [ -72.619501929582981, 41.728963444658184 ] } },
{ "type": "Feature", "properties": { "Vendor": "CVS #0692", "Address": "162 WASHINGTON AVE", "City": "NORTH HAVEN", "Phone": 2032395914.0, "Zip": "06473", "State": "CT" }, "geometry": { "type": "Point", "coordinates": [ -72.852607882162829, 41.397762544702566 ] } },
{ "type": "Feature", "properties": { "Vendor": "CVS #3549", "Address": "355 CAMPBELL AVE", "City": "WEST HAVEN", "Phone": 2039311190.0, "Zip": "06516", "State": "CT" }, "geometry": { "type": "Point", "coordinates": [ -72.94780591051466, 41.268141553729556 ] } },
{ "type": "Feature", "properties": { "Vendor": "CVS #0785", "Address": "632 MIDDLE TPKE", "City": "STORRS MANSFIELD", "Phone": 8604870223.0, "Zip": "06268", "State": "CT" }, "geometry": { "type": "Point", "coordinates": [ -72.266811082972538, 41.826669414881316 ] } },
{ "type": "Feature", "properties": { "Vendor": "CVS #1183", "Address": "777 MAIN ST", "City": "HARTFORD", "Phone": 8602449424.0, "Zip": "06103", "State": "CT" }, "geometry": { "type": "Point", "coordinates": [ -72.673844972544217, 41.766143466271508 ] } },
{ "type": "Feature", "properties": { "Vendor": "CVS #0133", "Address": "698 POST RD", "City": "FAIRFIELD", "Phone": 2032554402.0, "Zip": "06824", "State": "CT" }, "geometry": { "type": "Point", "coordinates": [ -73.247169683398923, 41.1480239525103 ] } },
{ "type": "Feature", "properties": { "Vendor": "PRICERITE OF BRIDGEPORT", "Address": "164 BOSTON AVE", "City": "BRIDGEPORT", "Phone": 2033336954.0, "Zip": "06610", "State": "CT" }, "geometry": { "type": "Point", "coordinates": [ -73.186511795299154, 41.201083583438589 ] } },
{ "type": "Feature", "properties": { "Vendor": "SAM'S DELI & CONVENIENCE STORE", "Address": "153 HIGHLAND AVE", "City": "WATERBURY", "Phone": 2035919397.0, "Zip": "06708", "State": "CT" }, "geometry": { "type": "Point", "coordinates": [ -73.058566510083324, 41.552797953642376 ] } },
{ "type": "Feature", "properties": { "Vendor": "WALMART STORE #3803", "Address": "515 SAWMILL RD", "City": "WEST HAVEN", "Phone": 2039312081.0, "Zip": "06516", "State": "CT" }, "geometry": { "type": "Point", "coordinates": [ -72.977437856870694, 41.270682569464704 ] } },
{ "type": "Feature", "properties": { "Vendor": "WALSH'S MARKET OF WOLCOTT", "Address": "1786 MERIDEN RD", "City": "WOLCOTT", "Phone": 2038792580.0, "Zip": "06716", "State": "CT" }, "geometry": { "type": "Point", "coordinates": [ -72.984218859881281, 41.57882149774985 ] } },
{ "type": "Feature", "properties": { "Vendor": "SHOPRITE OF BRISTOL #308", "Address": "1200 FARMINGTON AVE", "City": "BRISTOL", "Phone": 8605848022.0, "Zip": "06010", "State": "CT" }, "geometry": { "type": "Point", "coordinates": [ -72.903380890130592, 41.696600470860012 ] } },
{ "type": "Feature", "properties": { "Vendor": "ACME #2633", "Address": "282 ELM ST", "City": "NEW CANAAN", "Phone": 2039660017.0, "Zip": "06840", "State": "CT" }, "geometry": { "type": "Point", "coordinates": [ -73.500249364047448, 41.14550644674835 ] } },
{ "type": "Feature", "properties": { "Vendor": "STOP & SHOP #687", "Address": "22 LEETES ISLAND RD", "City": "BRANFORD", "Phone": 2034881325.0, "Zip": "06405", "State": "CT" }, "geometry": { "type": "Point", "coordinates": [ -72.76344793595139, 41.297802540183596 ] } },
{ "type": "Feature", "properties": { "Vendor": "COMPARE FOODS (A & E)", "Address": "72 BROAD ST", "City": "NEW BRITAIN", "Phone": 8608271764.0, "Zip": "06053", "State": "CT" }, "geometry": { "type": "Point", "coordinates": [ -72.78607945952146, 41.673259267468332 ] } },
{ "type": "Feature", "properties": { "Vendor": "STOP & SHOP #650", "Address": "1160 KINGS HIGHWAY CUTOFF", "City": "FAIRFIELD", "Phone": 2032548478.0, "Zip": "06824", "State": "CT" }, "geometry": { "type": "Point", "coordinates": [ -73.245723806184259, 41.151164582972505 ] } },
{ "type": "Feature", "properties": { "Vendor": "STOP & SHOP #603", "Address": "15 FRANKLIN ST", "City": "SEYMOUR", "Phone": 2038812641.0, "Zip": "06483", "State": "CT" }, "geometry": { "type": "Point", "coordinates": [ -73.072286847519536, 41.400706527551279 ] } },
{ "type": "Feature", "properties": { "Vendor": "DANBURY DELI & MARKET LLC", "Address": "216 WHITE ST STE 3", "City": "DANBURY", "Phone": 2037312767.0, "Zip": "06810", "State": "CT" }, "geometry": { "type": "Point", "coordinates": [ -73.440739685145374, 41.399201527317615 ] } },
{ "type": "Feature", "properties": { "Vendor": "VICTOR'S FOOD MART & DELI", "Address": "304 GRAND AVE", "City": "NEW HAVEN", "Phone": 2037778880.0, "Zip": "06513", "State": "CT" }, "geometry": { "type": "Point", "coordinates": [ -72.899623894089316, 41.308515537229695 ] } },
{ "type": "Feature", "properties": { "Vendor": "CVS #2219", "Address": "2427 MAIN ST", "City": "ROCKY HILL", "Phone": 8602584962.0, "Zip": "06067", "State": "CT" }, "geometry": { "type": "Point", "coordinates": [ -72.639685968909632, 41.662305451234694 ] } },
{ "type": "Feature", "properties": { "Vendor": "EDDY'S FOOD CENTER", "Address": "276 HOWARD AVE", "City": "NEW HAVEN", "Phone": 2037872339.0, "Zip": "06519", "State": "CT" }, "geometry": { "type": "Point", "coordinates": [ -72.932056905043723, 41.288705542453009 ] } },
{ "type": "Feature", "properties": { "Vendor": "SAMMY'S DOLLAR STORE", "Address": "500 PARK AVE SUITE 6", "City": "BRIDGEPORT", "Phone": 2033829520.0, "Zip": "06604", "State": "CT" }, "geometry": { "type": "Point", "coordinates": [ -73.193648817175131, 41.168990581958298 ] } },
{ "type": "Feature", "properties": { "Vendor": "CVS #0696", "Address": "14 CANDLEWOOD LAKE RD", "City": "BROOKFIELD", "Phone": 2037759593.0, "Zip": "06804", "State": "CT" }, "geometry": { "type": "Point", "coordinates": [ -73.413238751507862, 41.434748543169988 ] } },
{ "type": "Feature", "properties": { "Vendor": "EL MORRO SUPERMARKET", "Address": "158 HILLSIDE AVE", "City": "HARTFORD", "Phone": 8602637836.0, "Zip": "06106", "State": "CT" }, "geometry": { "type": "Point", "coordinates": [ -72.69782491991667, 41.748389467695098 ] } },
{ "type": "Feature", "properties": { "Vendor": "SNACK PLUS", "Address": "75 PUTNAM AVE", "City": "HAMDEN", "Phone": 2032302340.0, "Zip": "06517", "State": "CT" }, "geometry": { "type": "Point", "coordinates": [ -72.915141005955434, 41.345655092458941 ] } },
{ "type": "Feature", "properties": { "Vendor": "BLUE FIVE CORNERS", "Address": "214 WESTLAND ST", "City": "HARTFORD", "Phone": 8609372165.0, "Zip": "06112", "State": "CT" }, "geometry": { "type": "Point", "coordinates": [ -72.68168892125243, 41.791655459844215 ] } },
{ "type": "Feature", "properties": { "Vendor": "WHALLEY AVE FOOD MARKET", "Address": "538 WHALLEY AVE", "City": "NEW HAVEN", "Phone": 2033971485.0, "Zip": "06511", "State": "CT" }, "geometry": { "type": "Point", "coordinates": [ -72.951036878767283, 41.320021543046359 ] } },
{ "type": "Feature", "properties": { "Vendor": "CVS #1775", "Address": "1058 HOPE ST", "City": "STAMFORD", "Phone": 2033255172.0, "Zip": "06907", "State": "CT" }, "geometry": { "type": "Point", "coordinates": [ -73.519793682399097, 41.095053630236166 ] } },
{ "type": "Feature", "properties": { "Vendor": "BIG Y BRANFORD #12", "Address": "1060 W MAIN ST", "City": "BRANFORD", "Phone": 2034819671.0, "Zip": "06405", "State": "CT" }, "geometry": { "type": "Point", "coordinates": [ -72.831436399917507, 41.275159853973115 ] } },
{ "type": "Feature", "properties": { "Vendor": "STOP & SHOP #640 SUPER", "Address": "385 CONNECTICUT AVE", "City": "NORWALK", "Phone": 2032991715.0, "Zip": "06854", "State": "CT" }, "geometry": { "type": "Point", "coordinates": [ -73.439363731134492, 41.100383593745072 ] } },
{ "type": "Feature", "properties": { "Vendor": "CHERRY VALLEY MARKETPLACE", "Address": "155 THOMASTON AVE", "City": "WATERBURY", "Phone": 2037545700.0, "Zip": "06702", "State": "CT" }, "geometry": { "type": "Point", "coordinates": [ -73.052975861476327, 41.558701516154755 ] } },
{ "type": "Feature", "properties": { "Vendor": "SHOPRITE OF STRATFORD #320", "Address": "250 BARNUM AVE CUT OFF", "City": "STRATFORD", "Phone": 2033784296.0, "Zip": "06614", "State": "CT" }, "geometry": { "type": "Point", "coordinates": [ -73.119869817835536, 41.200771564228425 ] } },
{ "type": "Feature", "properties": { "Vendor": "CVS #0857", "Address": "660 FOXON RD", "City": "EAST HAVEN", "Phone": 2034695154.0, "Zip": "06513", "State": "CT" }, "geometry": { "type": "Point", "coordinates": [ -72.799355921428131, 41.33257208210604 ] } },
{ "type": "Feature", "properties": { "Vendor": "SHOPRITE OF NEW LONDON", "Address": "351 N FRONTAGE RD", "City": "NEW LONDON", "Phone": 8604471424.0, "Zip": "06320", "State": "CT" }, "geometry": { "type": "Point", "coordinates": [ -72.120192461881786, 41.370492656805659 ] } },
{ "type": "Feature", "properties": { "Vendor": "BIG Y WORLD CLASS MARKET #81", "Address": "33 FIELDSTONE CMNS", "City": "TOLLAND", "Phone": 8608720304.0, "Zip": "06084", "State": "CT" }, "geometry": { "type": "Point", "coordinates": [ -72.357948070978949, 41.859089440244325 ] } },
{ "type": "Feature", "properties": { "Vendor": "STOP & SHOP #619", "Address": "1095 KENNEDY RD", "City": "WINDSOR", "Phone": 8606880860.0, "Zip": "06095", "State": "CT" }, "geometry": { "type": "Point", "coordinates": [ -72.652779907858161, 41.893335427146582 ] } },
{ "type": "Feature", "properties": { "Vendor": "CITY SUPERMARKET", "Address": "717 WEST AVE", "City": "NORWALK", "Phone": 2039560241.0, "Zip": "06850", "State": "CT" }, "geometry": { "type": "Point", "coordinates": [ -73.414300758460769, 41.115865594327296 ] } },
{ "type": "Feature", "properties": { "Vendor": "GALA FOODS SUPERMARKET", "Address": "1457 FAIRFIELD AVE", "City": "BRIDGEPORT", "Phone": 2033301094.0, "Zip": "06605", "State": "CT" }, "geometry": { "type": "Point", "coordinates": [ -73.210848812080044, 41.172069589527403 ] } },
{ "type": "Feature", "properties": { "Vendor": "NSA SUPERMARKET", "Address": "332 S FRONTAGE RD", "City": "NEW LONDON", "Phone": 8604377100.0, "Zip": "06320", "State": "CT" }, "geometry": { "type": "Point", "coordinates": [ -72.11825155356739, 41.369140377292752 ] } },
{ "type": "Feature", "properties": { "Vendor": "CVS #0459", "Address": "2639 MAIN ST", "City": "GLASTONBURY", "Phone": 8606339090.0, "Zip": "06033", "State": "CT" }, "geometry": { "type": "Point", "coordinates": [ -72.611856965927743, 41.71550143995011 ] } },
{ "type": "Feature", "properties": { "Vendor": "TARGET T-1528", "Address": "7 STONY HILL RD", "City": "BETHEL", "Phone": 2034481029.0, "Zip": "06801", "State": "CT" }, "geometry": { "type": "Point", "coordinates": [ -73.401867699607905, 41.414311537976758 ] } },
{ "type": "Feature", "properties": { "Vendor": "STOP & SHOP #677", "Address": "11 E MAIN ST", "City": "CANAAN", "Phone": 8608247016.0, "Zip": "06018", "State": "CT" }, "geometry": { "type": "Point", "coordinates": [ -73.321811711766728, 42.024803439477878 ] } },
{ "type": "Feature", "properties": { "Vendor": "SAVE-A-LOT #821", "Address": "1125 DIXWELL AVE", "City": "HAMDEN", "Phone": 2037721346.0, "Zip": "06514", "State": "CT" }, "geometry": { "type": "Point", "coordinates": [ -72.934321400162531, 41.344068999891043 ] } },
{ "type": "Feature", "properties": { "Vendor": "TARGET T-1955", "Address": "25 BOSTON POST RD", "City": "ORANGE", "Phone": 2038593694.0, "Zip": "06477", "State": "CT" }, "geometry": { "type": "Point", "coordinates": [ -72.987754885768936, 41.280760549711992 ] } },
{ "type": "Feature", "properties": { "Vendor": "KID MINI MARKET", "Address": "90 FARREN AVE", "City": "NEW HAVEN", "Phone": 2036919354.0, "Zip": "06513", "State": "CT" }, "geometry": { "type": "Point", "coordinates": [ -72.892986938882217, 41.296748562006236 ] } },
{ "type": "Feature", "properties": { "Vendor": "GRADE A MARKET #395", "Address": "495 HOPE ST", "City": "STAMFORD", "Phone": 2033259991.0, "Zip": "06906", "State": "CT" }, "geometry": { "type": "Point", "coordinates": [ -73.521636695345123, 41.076355619374979 ] } }
]
}
